id,address,zip_code,latitude,longitude,city,state,categories
AVwdRGa9_7pvs4fz4E3K,3703 Paxton Ave,45209,39.144883,-84.43268499999999,Cincinnati,OH,"Restaurant,Pizza Place,Restaurants"
AVwchRVZkufWRAb5wDIV,4061 28th St SE,49512,42.912878000000006,-85.566939,Grand Rapids,MI,"Restaurant,Italian Restaurant,Pizza Place,Italian Restaurant and Pizza Place"
AVwc7s1wIN2L1WUfqehD,146 N Glendora Ave,91741,34.137502000000005,-117.86533100000001,Glendora,CA,"Pizza,Restaurant,Pizza Place"
AVwc2xOokufWRAb5zu4_,965 N Resler Dr,79912,31.862409000000003,-106.558431,El Paso,TX,"Restaurant,Pizza Place,Restaurants"
AVwdixeC_7pvs4fz67Pw,1584 N Woodland Blvd,32720,29.046703000000004,-81.30381700000001,DeLand,FL,"Restaurant,Pizza Place,Restaurants"
AVwdK3hX_7pvs4fz2-s0,1477 York Ave,10075,40.770825,-73.95102,New York,NY,"Restaurant,Pizza Place Upper East Side,Pizza Place"
AVwcjjQ4kufWRAb5weHv,9600 San Jose Blvd,32257,30.204576,-81.785252,Jacksonville,FL,"Restaurant,Pizza Place"
AVwd3vBcIN2L1WUfz8Kd,786 Main St,12603,41.696049,-73.901679,Poughkeepsie,NY,"Restaurant,Pizza Place,Restaurants"
AVweM6RuIN2L1WUf24PG,150 N Pantano Rd,85710,32.223015000000004,-110.82291299999999,Tucson,AZ,Pizza Place
AV1h2sbCa4HuVbed7cM1,1612 Franklin St,46360,41.707275,-86.896541,Michigan City,IN,"Restaurant,Pizza Place,Restaurants"
AVwcu-Fk_7pvs4fzyYOQ,121 E Seneca St,13461,43.076696000000005,-75.597597,Sherrill,NY,"Pizza,Pizza Place,Restaurants"
AVwd95bD_7pvs4fz-2aw,3348 Genesee St,14225,42.925755,-78.761238,Buffalo,NY,Pizza Place
AVweUktQByjofQCxxMCG,1608 W Friendly Ave,27403,36.075201,-79.814066,Greensboro,NC,"Restaurant,Pizza Place Brice Street Area,Pizza Place"
AVwd4yfD_7pvs4fz-JKy,2300 Muscatine Ave,52240,41.649871000000005,-91.501576,Iowa City,IA,"Restaurant,Pizza Place"
AVwckJ-gkufWRAb5wlE8,9705 Mintworth Ave,28227,35.172024,-80.70837900000001,Charlotte,NC,"Italian Restaurant,Pizza Place,Italian Restaurant and Pizza Place"
AVwejfkbIN2L1WUf6CVf,1330 Park St,94501,37.763389000000004,-122.243626,Alameda,CA,"Pizza,Restaurant,American restaurants,Pizza Place,Restaurants"
AVwdmw5ckufWRAb57ikr,321 W San Francisco St,87501,35.688306,-105.94262900000001,Santa Fe,NM,"Pizza,Pizza Place,Restaurants"
AVwdJ0iWIN2L1WUfswH0,329 Massachusetts Ave,46204,39.77139687,-86.15371764,Indianapolis,IN,"Pizza,Pizza Place,Restaurants"
AVzA86ss-gnIPe8DSebH,4698 S Whitnall Ave,53235,42.960947,-87.879166,Saint Francis,WI,"Restaurant,Pizza Place"
AVwdXfmMIN2L1WUfvEuH,829 N Douglas St,90245,33.927667,-118.38358899999999,El Segundo,CA,"Restaurant,Pizza Place"
AVwdygg6kufWRAb59RSK,1185 Spring Centre South Blvd,32714,28.687632,-81.392252,Altamonte Springs,FL,Pizza Place
AVwdkogvIN2L1WUfxIul,1124 W Elizabeth St,80521,40.575047999999995,-105.09718400000001,Fort Collins,CO,"Restaurant,Pizza Place,Restaurants"
AVwcptwJIN2L1WUfnYma,5211 5th Ave,11220,40.6437,-74.01174,Brooklyn,NY,"Cheesesteaks,Pizza,Restaurant,Italian,Pizza Place"
AVwd-Tr2_7pvs4fz-6Sd,30130 23 Mile Rd,48047,42.674001000000004,-82.805755,New Baltimore,MI,"Restaurant,Pizza Place,Restaurants"
AVzBBC1w3D1zeR_xBEbJ,1710 Centennial Blvd,97477,44.056504,-122.99923700000001,Springfield,OR,"Restaurant,Pizza Place"
AVwdk4j6_7pvs4fz7Pko,30120 Town Center Dr,92677,33.525715999999996,-117.713851,Laguna Niguel,CA,"Pizza,Restaurant,Pizza Place,Restaurants"
AVwdvgQ2IN2L1WUfyyF2,1204 Airline Blvd,23707,36.828796000000004,-76.345529,Portsmouth,VA,"Italian Restaurant,Pizza Place,Italian Restaurant and Pizza Place"
AVzYZUGOFcQ3k02bCFDI,4 N Weinbach Ave,47711,37.977367,-87.529583,Evansville,IN,"Restaurant,Pizza Place"
AVwc8BPEByjofQCxj0o5,34747 Warren Rd,48185,42.338678,-83.384055,Westland,MI,"Pizza,Restaurant,Pizza Place,Restaurants"
AVwcsfet_7pvs4fzx9tu,8123 Ridge Rd,34668,28.280990999999997,-82.680089,Port Richey,FL,Pizza Place
AVwctrN8ByjofQCxhXcc,318 E Washington St,62220,38.512370000000004,-89.979237,Belleville,IL,Pizza Place
AVwdzWxrByjofQCxsooF,2217 Elliston Pl,37203,36.151253999999994,-86.804068,Nashville,TN,"Pizza,Restaurant,American restaurants,Pizza Place,Restaurants"
AVwdfZmA_7pvs4fz6Z3K,3001 Delta Fair Blvd,94509,37.998909999999995,-121.83856100000001,Antioch,CA,"Restaurant,Pizza Place"
AVwdNEjpIN2L1WUftT5s,1225 S 10th St,46060,40.035328,-86.01213,Noblesville,IN,"Pizza,Restaurant,Pizza Place,Restaurants"
AVwdMqWBByjofQCxmiZ3,12277 Capital Blvd,27587,35.981014,-78.540873,Wake Forest,NC,"Pizza,American restaurants,Pizza Place,Restaurants"
AVwdq2Ng_7pvs4fz8LXz,1956 Bacon St,92107,32.748009,-117.250295,San Diego,CA,"Brewery,Pizza Place"
AVwddxTNByjofQCxpZIm,10402 Atlantic Ave,11416,40.690068,-73.840815,Ozone Park,NY,"Pizza,Restaurant,Pizza Place,Pizza Restaurant"
AVweCQWm_7pvs4fz_dr8,1107 Rutland Rd,11212,40.664732,-73.92320699999999,Brooklyn,NY,"Pizza,Restaurant,Caterers,Pizza Place,Restaurants"
AVwcgFbxByjofQCxe7cj,126 California Blvd,33897,28.292761,-81.665247,Davenport,FL,"Pizza,Delicatessens,American restaurants,Pizza Place,Restaurants"
AVwdLDWXIN2L1WUfs9bR,5025 Eastex Fwy,77706,30.121609000000003,-94.150623,Beaumont,TX,"Pizza,Restaurant,Italian Restaurant,Pizza Place"
AVwdD5lOByjofQCxlGa0,4704 Riverdale Rd,20737,38.962046,-76.93484000000001,Riverdale,MD,Pizza Place
AVwd9JpfByjofQCxt_KP,2200 Winter Springs Blvd,32765,28.672778000000005,-81.22444399999999,Oviedo,FL,"Restaurant,Pizza Place"
AVwc1L40kufWRAb5zezY,5604 Greene St,19144,40.033556,-75.175527,Philadelphia,PA,"Restaurant,Pizza Place"
AVwejj0U_7pvs4fzEHWK,101 N Harbor Blvd,92832,33.870622999999995,-117.924458,Fullerton,CA,"Pizza,Restaurant,Italian,Pizza Place"
AVwdAFUHByjofQCxkenI,285 S Broadway,11801,40.76265,-73.516777,Hicksville,NY,"Restaurant,Pizza Place"
AVwc7kSnkufWRAb50ivk,4312 MacArthur Blvd,94619,37.78713,-122.194414,Oakland,CA,"Pizza,Restaurant,Indian,Pizza Place,Restaurants"
AVzA3XZR-gnIPe8DSd1g,616 Amsterdam Ave,10024,40.79013,-73.973197,New York,NY,"Restaurant,Pizza Place"
AVweghCJkufWRAb5DlT0,109 E 8th St,90014,34.042482,-118.25278600000001,Los Angeles,CA,"Restaurant,Pizza Restaurants,Pizza Place,Restaurants"
AVwd5i6yByjofQCxtena,3938 S Zarzamora St,78225,29.385755,-98.532876,San Antonio,TX,"Pizza,Restaurant,Pizza Place Palm Heights,Pizza Place,Restaurants"
AVwdSNOFkufWRAb54SAY,1579 W McDowell Rd,85392,33.463851,-112.338715,Avondale,AZ,Pizza Place
AVwcm9ZqkufWRAb5xE9H,2422 S 34th St,66106,39.057669,-94.668251,Kansas City,KS,"Restaurant,Pizza Place Argentine,Pizza Place,Restaurants"
AVwd2GKq_7pvs4fz9xhs,411 Trenton Ave,13502,43.116935999999995,-75.21066400000001,Utica,NY,"Restaurant,Pizza Place"
AVweeHeH_7pvs4fzDSWW,817 Gap Newport Pike,19311,39.835408,-75.797744,Avondale,PA,Pizza Place
AVwcrTax_7pvs4fzxwrx,1441 Palatine Rd,60192,42.109722999999995,-88.114846,Hoffman Estates,IL,"Pizza,Restaurant,Pizza Place,Food & Entertainment,Restaurants"
AVweTVu0kufWRAb5BvuI,104 Wilson St,19464,40.260837,-75.643603,Pottstown,PA,"Restaurant,Pizza Place"
AVwdl1dlByjofQCxqn31,2100 Saviers Rd,93033,34.179341,-119.17697199999999,Oxnard,CA,Pizza Place
AVwc8WClByjofQCxj4HA,1690 El Camino Real,94066,37.613777,-122.40460300000001,San Bruno,CA,"Pizza Place,Catering,Restaurants"
AVwdhOlBkufWRAb56sMB,401 Broadhollow Rd,11747,40.795179,-73.41069300000001,Melville,NY,"Restaurant,Pizza Place"
AVwco0fVByjofQCxghm_,1265 S State St,92543,33.72854,-116.973359,Hemet,CA,Pizza Place
AVweeTS__7pvs4fzDT-p,7732 E Central Ave,67206,37.69484,-97.245802,Wichita,KS,"Restaurant,Pizza Place"
AVwdJLulIN2L1WUfspb9,4106 E Tremont Ave,10465,40.818721000000004,-73.817239,Bronx,NY,"Pizza Place,Catering,Restaurants"
AVwcntBwkufWRAb5xNsG,325 W Main St,40507,38.04895,-84.499832,Lexington,KY,Pizza Place
AVwcm4DPkufWRAb5xEDD,208 S Washington Hwy,23005,37.755604999999996,-77.471636,Ashland,VA,Pizza Place
AVzA1stk-gnIPe8DSc3Z,550 Madison Ave,10022,40.761466999999996,-73.973505,New York,NY,"Pizza,Restaurant,Vegetarian,Pizza Place,Kosher"
AVwcoyrpIN2L1WUfnOMC,26 5th St NW,30308,33.776749,-84.388042,Atlanta,GA,"Mediterranean Restaurant,Restaurant,Pizza Place,Pizza Place and Mediterranean Restaurant"
AVzoFevqLD2H7whiXica,4603 State Rd,19026,39.950501,-75.311856,Drexel Hill,PA,"Restaurant,Pizza Place"
AVwcxObL_7pvs4fzyxOh,6374 York Rd,21212,39.373003999999995,-76.610682,Baltimore,MD,Pizza Place
AVzoI1XC-gnIPe8DT9XN,974 E Main St,44266,41.157029,-81.22710500000001,Ravenna,OH,"Restaurant,Pizza Place"
AVwcz5nZIN2L1WUfpJf8,851 Main St,18067,40.676956,-75.487083,Northampton,PA,Pizza Place
AVwdHZx2_7pvs4fz2axU,1280 W Alexis Rd,43612,41.721845,-83.573882,Toledo,OH,Pizza Place
AVwc6-9zByjofQCxjpkJ,628 Columbus Ave,10594,41.11407,-73.77096999999999,Thornwood,NY,"Italian Restaurant,Pizza Place"
AVwd2mJWByjofQCxtE8q,35977 US Highway 19 N,34684,28.099059000000004,-82.739446,Palm Harbor,FL,"Italian Restaurant,Pizza Place"
AVwcv-lE_7pvs4fzyjgD,330 Mayfield Dr,37067,35.954553999999995,-86.80291700000001,Franklin,TN,"Wings Joint,Pizza Place"
AVweTTECIN2L1WUf3u9S,233 Atwood St,15213,40.440402,-79.956595,Pittsburgh,PA,"Restaurant,Pizza Place Central Oakland,Pizza Place"
AVwc6T02IN2L1WUfqPQl,1318 Bardstown Rd,40204,38.234790000000004,-85.714527,Louisville,KY,"Restaurant,Bar,Pizza Place"
AVwdU39w_7pvs4fz4s_G,73131 Country Club Dr,92260,33.757395,-116.388002,Palm Desert,CA,Pizza Place
AVwdXRNFByjofQCxoVYw,1725 S Catalina Ave,90277,33.817638,-118.388025,Redondo Beach,CA,"Pizza,Restaurant,Pizza Place South Redondo Beach,Pizza Place"
AVwdr0I__7pvs4fz8U8s,10666 Zelzah Ave,91344,34.264234,-118.52306999999999,Granada Hills,CA,"Pizza Place,Pizza Place Granada Hills South"
AVwd75-C_7pvs4fz-knu,101 Oak St,97520,42.197621000000005,-122.714487,Ashland,OR,"Brewery,Restaurant,Pizza Place"
AVzBBgtZ3D1zeR_xBExT,921 Washington Ave,33139,25.779851,-80.132911,Miami Beach,FL,"Pizza,Restaurant,Pizza Place"
AVwcrQrjkufWRAb5x0Nl,1515 N Pointe Dr,27705,36.027685,-78.915746,Durham,NC,"Pizza,Restaurant,Caterers,Pizza Place,Restaurants"
AVwcmVti_7pvs4fzw5A2,1665 Yankee Doodle Rd,55121,44.833982,-93.177622,Saint Paul,MN,Pizza Place
AVweb2cFByjofQCxyK3d,6052 William Flynn Hwy,15007,40.660149,-79.93373000000001,Bakerstown,PA,Pizza Place
AVwdugPW_7pvs4fz8s6A,701 N Highway 78,75098,33.016412,-96.53195699999999,Wylie,TX,"Italian Restaurant,Pizza Place"
AVwcw_ed_7pvs4fzyuhZ,2763 NC 55 Hwy,27519,35.785959999999996,-78.87249,Cary,NC,Pizza Place
AVwdDysNByjofQCxlFUN,1356 E Main St,10588,41.327321999999995,-73.83725,Shrub Oak,NY,Pizza Place
AVwc0YsK_7pvs4fzzSvM,148 Main St,90740,33.741276,-118.104753,Seal Beach,CA,"Restaurant,Pizza Place"
AVwcvO3NByjofQCxhoZB,23 N Bemiston Ave,63105,38.651052,-90.33693000000001,Saint Louis,MO,"Pizza,Restaurant,Caterers,Delicatessens,Pizza Place,Restaurants"
AVwdR7Qw_7pvs4fz4Ner,20129 N Main St,28031,35.483189,-80.859475,Cornelius,NC,Pizza Place
AVzA2dZ6FcQ3k02bBYKb,341 Lexington Ave,10016,40.749753000000005,-73.97724000000001,New York,NY,"Pizza,Restaurant,Italian,Pizza Place"
AV6hxjzS3-Khe5l_X6Jy,4836 Cooper Rd,45242,39.231333,-84.375957,Cincinnati,OH,"Restaurant,Pizza Place"
AVwc22qM_7pvs4fzzsLO,2038 S Byrne Rd,43614,41.601237,-83.62574000000001,Toledo,OH,"Pizza,Restaurant,Pizza Place,Restaurants"
AVwdyj22_7pvs4fz9SyC,1302 Castle Hill Ave,10462,40.834398,-73.851803,Bronx,NY,Pizza Place
AVweK2_PByjofQCxv4b3,1416 N Moorpark Rd,91360,34.197703999999995,-118.86805,Thousand Oaks,CA,"Pizza,Pizza Place,Restaurants"
AVwdCcNNkufWRAb51psq,2548 N Clark St,60614,41.929078000000004,-87.64257099999999,Chicago,IL,"Pizza,Restaurant,Pizza Restaurants,Pizza Place,Pizza Place Park West,Restaurants"
AVwdINi6ByjofQCxlyVU,12192 Beach Blvd,32246,30.287178000000004,-81.496577,Jacksonville,FL,"Restaurant,Pizza Place,Restaurants"
AVwcxLw8IN2L1WUfor5r,102 N Main St,78108,29.561918,-98.227211,Cibolo,TX,"Italian Restaurant,Pizza Place"
AVwdQOBNIN2L1WUft23V,151 Calhoun St,29401,32.785633000000004,-79.936788,Charleston,SC,"Pizza Place Radcliffeborough,Pizza Place"
AVwc6HnwIN2L1WUfqNI7,8600 Amber Hill Ct,68526,40.735713,-96.602018,Lincoln,NE,Pizza Place
AVwecSFzkufWRAb5C8xv,2350 Delaware Ave,14216,42.948045,-78.868886,Buffalo,NY,Pizza Place
AVwcnkKN_7pvs4fzxHf-,202 W Dickson St,72701,36.066691,-94.161982,Fayetteville,AR,"Pizza,Restaurant,Karaoke,Pizza Place,Restaurants"
AVwd6VHhIN2L1WUf0TWS,235 W 3rd St,29160,33.745715000000004,-81.086776,Swansea,SC,"Restaurant,Pizza Place"
AVzA1xP3-gnIPe8DSc73,381 Broadway,10013,40.71812,-74.00304200000001,New York,NY,"Restaurant,Pizza Place"
AVwcsFPjIN2L1WUfnzPx,3650 US 9W,12528,41.702977000000004,-73.96605,Highland,NY,Pizza Place
AVwdTE7KkufWRAb54bmr,1000 N Green Bay Rd,60085,42.375039,-87.883344,Waukegan,IL,Pizza Place
AVwdUTUzIN2L1WUfuiPL,585 Oak Ave,28777,35.915846,-82.06355,Spruce Pine,NC,"Pizza,Restaurant,Pizza Place,Restaurants"
AVwc4zzMkufWRAb50FA7,7403 Kingston Pike,37919,35.92972,-84.03249,Knoxville,TN,"Pizza,Restaurant,Italian,Pizza Place,Restaurants"
AVwdmXiR_7pvs4fz7erH,3105 E Henrietta Rd,14467,43.059261,-77.612875,Henrietta,NY,"Restaurant,Pizza Place"
AV1dv0YV3-Khe5l_Mz-7,1701 E Apple Ave,49442,43.2339,-86.20128299999999,Muskegon,MI,"Pizza,Restaurant,Pizza Place,Restaurants"
AVzoFH27LD2H7whiXh_4,12 W State St,18901,40.30982,-75.130833,Doylestown,PA,"Pizza,Restaurant,Italian restaurants,Pizza Place,Restaurants"
AVwchM6I_7pvs4fzv9gP,2885 78th Ave SE,98040,47.609947999999996,-122.20185500000001,Mercer Island,WA,"Restaurant,Pizza Place and Food Truck,Pizza Place,Food Truck"
AVwc1O2dByjofQCxirRD,5605 Centennial Center Blvd,89149,36.264719,-115.25799099999999,Las Vegas,NV,Pizza Place
AVwdOz8zkufWRAb53sdg,1431 E Williams Field Rd,85295,33.306143,-111.75944299999999,Gilbert,AZ,"Pizza,Restaurant,Italian,Pizza Place,Restaurants"
AVwdSzh4_7pvs4fz4W3A,104 W Girard Ave,19123,39.968918,-75.136361,Philadelphia,PA,"Diner and Pizza Place,Diner,Pizza Place,Diner and Pizza Place Northern Liberties - Fishtown"
AVwc9OOckufWRAb50zI7,3210 E Colonial Dr,32803,28.552024,-81.3433,Orlando,FL,"Pizza,Italian Restaurant,Restaurant,Italian,Pizza Place"
AVzA03Lh-gnIPe8DSb_U,831 7th Ave,10019,40.763358000000004,-73.98174200000001,New York,NY,"Pizza,Restaurant,Wings,Breakfast & Brunch,Pizza Place"
AVwdeQzMByjofQCxpd0b,6042 SE Division St,97206,45.505268,-122.600757,Portland,OR,Pizza Place
AVwclLYykufWRAb5wwV2,111A E State St,14850,42.439446999999994,-76.498509,Ithaca,NY,"Italian Restaurant,Pizza Place,Italian Restaurant and Pizza Place"
AVzA3XKeFcQ3k02bBYi_,936 2nd Ave,10022,40.754666,-73.968762,New York,NY,"Restaurant,Pizza Place"
AVzBFgxG-gnIPe8DSjb9,1424 Westover Ter,27408,36.091640000000005,-79.814653,Greensboro,NC,"Restaurant,Bar,Pizza Place"
AVwcuZGWByjofQCxhfJC,691 N High St,43215,39.976548,-83.00346,Columbus,OH,"Restaurant,Pizza Place,Pizzeria,Tempat Pizza"
AVwc1AJdByjofQCxio6e,1525 E Olive Way,98122,47.61845,-122.32553600000001,Seattle,WA,"Pizza Place Capitol Hill,Pizza Place"
AVwedm9mIN2L1WUf5Jbl,5040 W US Highway 52,46163,39.722914,-85.89633,New Palestine,IN,Pizza Place
AVwdNOUzkufWRAb53bnd,180 S Glendora Ave,91790,34.070553000000004,-117.920997,West Covina,CA,Pizza Place
AVwcpOdFIN2L1WUfnS6K,316 Horsham Rd,19044,40.207147,-75.10383900000001,Horsham,PA,Pizza Place
AVwdbvAU_7pvs4fz52dn,1085 Nerge Rd,60007,41.997467,-88.03121,Elk Grove Village,IL,Pizza Place
AV1b9yq4FcQ3k02bF9x_,7929 Heritage Village Plz,20155,38.803957000000004,-77.60264699999999,Gainesville,VA,"Restaurant,Pizza Place,Restaurants"
AVwdeVux_7pvs4fz6Qas,530 N Progress Ave,17109,40.29822,-76.846435,Harrisburg,PA,"Restaurant,Pizza Place"
AVwczJeSByjofQCxiUB8,139 S Clayton St,30046,33.94905,-83.987821,Lawrenceville,GA,"Pizza,Restaurant,Pizza Place,Restaurants"
AVwdM75VkufWRAb53YZM,1845 Grayson Hwy,30017,33.899322999999995,-83.96281,Grayson,GA,Pizza Place
AVzA-oKj-gnIPe8DSf38,1948 E Lincoln Hwy,19320,39.989036999999996,-75.786679,Coatesville,PA,"Pizza,Restaurant,Pizza Place,Restaurants"
AVweOw4KkufWRAb5BIVF,211 N Tamiami Trl,34236,27.338196999999997,-82.546968,Sarasota,FL,"Italian Restaurant,Pizza Place"
AVwc9MLeIN2L1WUfqt-Z,5428 New Hope Commons Dr,27707,35.955791999999995,-78.99608,Durham,NC,Pizza Place
AVwdlQjQByjofQCxqh6T,800 N Dixie Fwy,32168,29.036179999999998,-80.93236,New Smyrna Beach,FL,Pizza Place
AVwdhnA1ByjofQCxp-Js,6699 Frontier Dr,22150,38.771974,-77.171196,Springfield,VA,"Restaurant,Pizza Place"
AV4rBnBz3-Khe5l_R6YL,500 S Memorial Dr,47362,39.928051,-85.38119300000001,New Castle,IN,"Pizza,Restaurant,American restaurants,Pizza Place,Restaurants"
AVwdVui4IN2L1WUfuxbD,42 S Antrim Way,17225,39.790384,-77.73197900000001,Greencastle,PA,Pizza Place
AVwds7PI_7pvs4fz8erK,8639 Regency Park Blvd,34668,28.282668,-82.697508,Port Richey,FL,Pizza Place
AVwcgcOe_7pvs4fzv0lx,80 Route 6,10505,41.344698,-73.75576,Baldwin Place,NY,Pizza Place
AVzA2WaP3D1zeR_xBAna,2551 Amsterdam Ave,10033,40.851490000000005,-73.928312,New York,NY,"Pizza,Restaurant,Kosher,Pizza Place,Restaurants"
AVwcfjbZkufWRAb5vvqY,2776 Sheridan Dr,14150,42.981087,-78.83086800000001,Tonawanda,NY,Pizza Place
AVwdG8MTIN2L1WUfsSwH,61380 29 Palms Hwy,92252,34.135474,-116.324252,Joshua Tree,CA,"Restaurant,Pizza Place"
AVwcwSprIN2L1WUfohmb,159 Higbie Ln,11795,40.70554,-73.306412,West Islip,NY,Pizza Place
AVwdlzVI_7pvs4fz7Y21,3131 Eastern Ave,21224,39.286423,-76.57185799999999,Baltimore,MD,"Restaurant,Pizza Place"
AVzA1pry3D1zeR_xBAEO,83 Saint Marks Pl,10003,40.727691,-73.98530500000001,New York,NY,"Pizza,Restaurant,Italian,Pizza Place"
AVwdOtgdByjofQCxm4jb,4 Water St,11201,40.703299,-73.994029,Brooklyn,NY,"Restaurant,Pizza Place DUMBO,Pizza Place"
AVweDUcW_7pvs4fz_ncM,2115 Queen Anne Ave N,98109,47.637695,-122.35707,Seattle,WA,Pizza Place
AVzBEzoMLD2H7whiWL7R,678 W Chestnut St,17603,40.0395,-76.3208,Lancaster,PA,"Pizza,Restaurant,Italian restaurants,Pizza Place,Restaurants"
AVwdGEOeIN2L1WUfsJ-K,1313 W 3rd St,69301,42.0968,-102.89,Alliance,NE,"Pizza,Caterers,Pizza Place,Restaurants,Italian Restaurants"
AVweeqmt_7pvs4fzDXxs,18219 Dixie Hwy,60430,41.558199,-87.66528199999999,Homewood,IL,Pizza Place
AVyis-k_YuCoGd6wM3YQ,3067 Roosevelt St,92008,33.159453000000006,-117.347199,Carlsbad,CA,"Restaurant,Pizza Place"
AVzoFKCR3D1zeR_xCY3-,274 N Keswick Ave,19038,40.105793,-75.14688199999999,Glenside,PA,"Restaurant,Pizza Place"
AVwdlG0DByjofQCxqgZO,1928 Pulaski Hwy,21040,39.435362,-76.316397,Edgewood,MD,Pizza Place
AVwcyY6PByjofQCxiLg2,2520 George Washington Memorial Hwy,23072,37.278513000000004,-76.502286,Hayes,VA,"Pizza,Italian Restaurant,Pizza Place,Restaurants"
AVzBCUQy-gnIPe8DSiI5,2921 James St,13206,43.06925,-76.10577099999999,Syracuse,NY,"Pizza,Restaurant,Pizza Place,Restaurants"
AVwcxjlDkufWRAb5y4mF,7600 W Capitol Dr,53222,43.090434,-88.00892900000001,Milwaukee,WI,"Restaurant,Pizza Place"
AVwcpRgQ_7pvs4fzxaHT,10720 W Indian School Rd,85037,33.495298999999996,-112.29083100000001,Phoenix,AZ,"Restaurant,Pizza Place"
AVwcwG8PIN2L1WUfofeK,2440 S Melrose Dr,92081,33.141834,-117.24262,Vista,CA,"Pizza,Restaurant,Caterers,Pizza Place,Restaurants"
AVweE6g9kufWRAb5_ykR,1500 Queen Anne Ave N,98109,47.63292,-122.3566,Seattle,WA,"Pizza Place East Queen Anne,Pizza Place,Restaurants"
AVwckmenkufWRAb5wp_e,106 S Sharon Amity Rd,28211,35.176051,-80.799612,Charlotte,NC,"Restaurant,Pizza Place"
AVwd8X_CkufWRAb5-m3m,22994 Ventura Blvd,91364,34.164745,-118.62670200000001,Woodland Hills,CA,"Italian Restaurant,Pizza Place and Italian Restaurant,Pizza Place"
AVwdNqoe_7pvs4fz3d6I,11329 W 143rd St,60467,41.629352000000004,-87.896028,Orland Park,IL,"Pizza,Restaurant,Pizza Place,Restaurants"
AVwcfQaBkufWRAb5vr5B,86 Nassau Ave,11222,40.723898999999996,-73.95053,Brooklyn,NY,"Pizza,Restaurant,Pizza Place Greenpoint,Pizza Place,Restaurants"
AVwc9tEq_7pvs4fz00we,3414 Camino Tassajara,94506,37.798517,-121.919752,Danville,CA,Pizza Place
AVwc-2xHkufWRAb51EFA,3125 Wilson Blvd,22201,38.887211,-77.095515,Arlington,VA,"Department stores,Pizza,Restaurant,Pizza Place,Restaurants"
AVweAL6v_7pvs4fz_LAH,3443 N Dixie Dr,45414,39.7972,-84.1938,Dayton,OH,"Pizza,Caterers,Pizza Place,Catering,Restaurants"
AVwderupIN2L1WUfwOgT,305 Market St,17101,40.2609,-76.8805,Harrisburg,PA,"Pizza,Restaurant,Pizza Place,Restaurants,Italian Restaurants"
AVwcfGjW_7pvs4fzvlJb,7700 Crittenden St,19119,40.071999999999996,-75.1929,Philadelphia,PA,"Pizza,Restaurant,Pizza Place,Restaurants"
AVwdVhDIkufWRAb541J-,53 Merrick Ave,11566,40.6652,-73.5531,Merrick,NY,"Restaurant,Pizza Place,Restaurants"
AVwePCEdByjofQCxwcPB,571 W Cherry St,43074,40.2494,-82.8712,Sunbury,OH,"Pizza,Restaurant,Pizza Place,Restaurants"
AVweCpbLIN2L1WUf1eaC,1607 Montford Dr,28209,35.171,-80.8494,Charlotte,NC,"Restaurant,Pizza Place,Restaurants"
AVweiIY3IN2L1WUf51I2,1149 W Chester Pike,19382,39.9697,-75.5671,West Chester,PA,"Pizza,Restaurant,Pizza Place,Restaurants"
AVzYzhj3LD2H7whiW-AF,1924 Eggert Rd,14226,42.9771,-78.8141,Buffalo,NY,"Pizza,Restaurant,Caterers,Pizza Place,Catering,Restaurants"
AVweI6uxkufWRAb5AVsJ,1814 State Hill Rd,19610,40.3385,-75.9742,Reading,PA,"Pizza Place,Restaurants"
AVwc4Y55IN2L1WUfp5-u,1427 E 10th St,28204,35.2221,-80.8216,Charlotte,NC,"Pizza Place,Restaurants"
AVzBGGiw3D1zeR_xBG8D,4005 Shelbyville Rd,40207,38.252732,-85.652416,Louisville,KY,"Restaurant,Pizza Place,Restaurants"
AVwc8SiGIN2L1WUfqkte,605 E William St,48104,42.277918,-83.741812,Ann Arbor,MI,Pizza Place
AVwc8kIhkufWRAb50s2Q,20 E Cross St,21230,39.276984999999996,-76.613502,Baltimore,MD,"Bar,Bar and Pizza Place,Pizza Place"
AVwdN1R3ByjofQCxmuhV,10122 Brooks School Rd,46037,39.935409,-85.948325,Fishers,IN,Pizza Place
AVwcooT2IN2L1WUfnMIQ,513 N Tustin St,92867,33.795466999999995,-117.835202,Orange,CA,"Pizza,Restaurant,Pizza Place,Restaurants"
AVwdAdbt_7pvs4fz1SDz,222 Capitol St,25301,38.350353999999996,-81.634295,Charleston,WV,"Restaurant,Pizza Place Downtown Charleston,Pizza Place"
AVweRPSQIN2L1WUf3c8T,605 N Pottstown Pike,19341,40.050748,-75.636013,Exton,PA,Pizza Place
AVwc8mXykufWRAb50tQR,27 Smith St,11201,40.690609,-73.98788,Brooklyn,NY,"Restaurant,Pizza Place,Restaurants"
AVwdRPJPIN2L1WUfuCKu,3033 Santiam Hwy SE,97322,44.631099,-123.067543,Albany,OR,Pizza Place
AVwciA4BByjofQCxfRMF,4703 SW 16th Pl,33914,26.564562,-82.00746,Cape Coral,FL,"Restaurant,Pizza Place"
AVwdQ_ZTIN2L1WUft_pi,140 N Parsons Ave,33510,27.938903999999997,-82.285922,Brandon,FL,"Restaurant,Pizza Place"
AVwdPrMOByjofQCxnDjJ,1051 Murfreesboro Rd,37090,36.174562,-86.301968,Lebanon,TN,Pizza Place
AVwd5RdCIN2L1WUf0JyS,1985 Marketview Dr,60560,41.666191999999995,-88.44088,Yorkville,IL,"Italian Restaurant,Pizza Place"
AVwdKBFS_7pvs4fz21sS,9844 Katella Ave,92804,33.801996,-117.961178,Anaheim,CA,Pizza Place
AVwdP450kufWRAb534w7,2221 Transcontinental Dr,70001,29.995508,-90.192205,Metairie,LA,Pizza Place
AVwdUhLv_7pvs4fz4o3D,205 5th St,50265,41.571417,-93.708752,West Des Moines,IA,Pizza Place
AVzA_hUsLD2H7whiWI6N,4933 Brownsboro Rd,40222,38.281974,-85.631963,Louisville,KY,"Restaurant,Pizza Place"
AVwc4hsLIN2L1WUfp7eU,2308 Niagara Falls Blvd,14150,43.017091,-78.82263,Tonawanda,NY,"Pizza,Restaurant,Pizza Place,Restaurants"
AV0YziGt3D1zeR_xDz1J,6111 Mid Rivers Mall Dr,63304,38.7465,-90.6349,Saint Charles,MO,"Pizza,Restaurant,Pizza Place,Restaurants,Italian Restaurants"
AVzBDeBC-gnIPe8DSiqs,4028 Penn Ave,15224,40.4653,-79.9568,Pittsburgh,PA,"Pizza,Restaurant,Pizza Place,Restaurants"
AV50oA11IxWefVJwpniR,1916 South Ave,13207,43.0189,-76.1611,Syracuse,NY,"Pizza,Restaurant,Pizza Place,Restaurants"
AV1thBeYa4HuVbed8XdQ,1906 E Carson St,15203,40.4286,-79.9791,Pittsburgh,PA,"Restaurant,Pizza Place,Restaurants"
AVzTg-N73D1zeR_xBZFp,402 S Main St,28036,35.4963,-80.8525,Davidson,NC,"Restaurant,Pizza Place,Restaurants"
AVwcuda4IN2L1WUfoNJ9,421 Fayetteville St,27601,35.7644,-78.6436,Raleigh,NC,"Restaurant,Pizza Place,Restaurants"
AV5Brc-lIxWefVJwmRha,158 W FM 544,75094,33.011399,-96.616538,Plano,TX,"Restaurant,Pizza Place"
AVweh55kByjofQCxzE-l,20 E 13th Ave,43201,39.998000000000005,-83.0069,Columbus,OH,"Pizza,Restaurant,Pizza Place,Restaurants"
AVzA37wVLD2H7whiWGr4,313 Main St,11735,40.7323,-73.4457,Farmingdale,NY,"Pizza,Italian Restaurant,Restaurant,Pizza Place,Restaurants"
AVwcfDddkufWRAb5vpfj,524 Stone Rd,14616,43.223571,-77.641189,Rochester,NY,"Pizza,Italian restaurants,Pizza Place,Restaurants"
AVwda7sL_7pvs4fz5tm_,4246 Main St,60515,41.809399,-88.011489,Downers Grove,IL,Pizza Place
AVwdopBdIN2L1WUfxwyC,1764 Merrick Ave,11566,40.6751,-73.5574,Merrick,NY,"Restaurant,Pizza Place,Restaurants"
AVwchwUe_7pvs4fzwEkN,33 Caroline St,12866,43.082,-73.7833,Saratoga Springs,NY,"Pizza,American restaurants,Karaoke,Pizza Place,Restaurants"
AVwdxzgBIN2L1WUfzIKE,224 N Sandusky Ave,44820,40.8102,-82.9755,Bucyrus,OH,"Restaurant,Pizza Place,Restaurants"
AVwctXykIN2L1WUfoBOD,1112 Yadkinville Rd,27028,35.9121,-80.581,Mocksville,NC,"Pizza,Pizza Place"
AVwdDfflkufWRAb510_7,600 Delaware St,14150,43.0031,-78.8751,Tonawanda,NY,"Pizza,Restaurant,Caterers,Pizza Place,Restaurants"
AVwctvUdkufWRAb5yPKx,1425 W Battlefield St,65807,37.1605,-93.3116,Springfield,MO,"Restaurant,Pizza Place,Restaurants"
AVwdO01CkufWRAb53sqC,2300 Paseo Verde Pkwy,89052,36.019961,-115.08939199999999,Henderson,NV,"Restaurant,Pizza Place"
AVwdd6bTIN2L1WUfwHTX,3306 W Touhy Ave,60076,42.012876,-87.71204,Skokie,IL,"Restaurant,Pizza Place"
AVweGzrrkufWRAb5ADSu,2002 N Interstate 35E,75006,32.969013000000004,-96.91896899999999,Carrollton,TX,"Restaurant,Pizza Place"
AVwdnUavIN2L1WUfxjvV,2898 Westington Rd,14845,42.176444000000004,-76.836292,Horseheads,NY,Pizza Place
AVwcoiWWIN2L1WUfnLKC,105 W Carson St,90745,33.832072,-118.278728,Carson,CA,Pizza Place
AVwcmx0Y_7pvs4fzw-Tv,790 E 14th Ave,97401,44.044263,-123.080845,Eugene,OR,"Pizza,Restaurant,Italian restaurants,Pizza Place,Restaurants"
AVwcpk3nkufWRAb5xhdF,517 Warren St,12534,42.24917,-73.786089,Hudson,NY,"American Restaurant,Pizza Place and American Restaurant,Pizza Place"
AVzBBWvyFcQ3k02bBcE1,731 Lincoln Rd,33139,25.790641,-80.136136,Miami Beach,FL,"Pizza,Italian Restaurant,Restaurant,Italian,Pizza Place"
AVwcsqn_kufWRAb5yDli,811 Lexington Ave,10065,40.764346999999994,-73.96656999999999,New York,NY,"Pizza,Restaurant,Pizza Restaurants,Italian,Wings,Breakfast & Brunch,Pizza Place"
AVwdFyLmkufWRAb52Mu3,808 Divisadero St,94117,37.777128000000005,-122.438272,San Francisco,CA,"Pizza,Restaurant,American restaurants,Pizza Place,Restaurants"
AVwdalfokufWRAb55qYh,800 Nicollet Mall,55402,44.975731,-93.27340799999999,Minneapolis,MN,"Pizza,Pizza Place Downtown West,Pizza Place,Bakeries,Restaurants"
AVzA5GDv-gnIPe8DSeK-,165 Bleecker St,10012,40.728772,-74.000196,New York,NY,"Restaurant,Pizza Place"
AVwcvN-z_7pvs4fzya-k,1975 Magwood Dr,29414,32.813331,-80.041824,Charleston,SC,Pizza Place
AVwdj0VI_7pvs4fz7FfY,2561 53rd Ave,52722,41.574694,-90.49668100000001,Bettendorf,IA,"Pizza,Restaurant,Gastropub,Pizza Place,Restaurants"
AVzoOyREFcQ3k02bC6zM,3005 National Parks Hwy,88220,32.3888,-104.2206,Carlsbad,NM,"Restaurant,Pizza Place,Restaurants"
AVwdPb_QIN2L1WUftt0u,584 Marschall Rd,55379,44.794686999999996,-93.508539,Shakopee,MN,"Pizza,Pizza Place"
AVwdQho1IN2L1WUft6Jx,17805 Cottonwood Dr,80134,39.558578000000004,-104.782375,Parker,CO,"wholesale,Pizza Place"
AV0wESC_FcQ3k02bFGVO,621 Highway 71 N,72921,35.4931,-94.2266,Alma,AR,"Restaurant,Pizza Place,Restaurants"
AVwdozq7ByjofQCxrFbX,6900 Silver Star Rd,32818,28.572609000000003,-81.517117,Orlando,FL,"Pizza,Restaurant,Chain Restaurant,Pizza Place"
AVwciqTJIN2L1WUfmGUV,5132 6th Ave,98406,47.255501,-122.50646299999998,Tacoma,WA,"Restaurant,Pizza Place"
AVwd1f2FkufWRAb59rNH,10050 Edison Square Dr NW,28027,35.430659999999996,-80.676979,Concord,NC,Pizza Place
AVwdDQ7V_7pvs4fz1vkD,103 S Dixie Way,46637,41.71566,-86.250651,South Bend,IN,Pizza Place
AWEKTacq3-Khe5l_ebIU,2403 SW 27th Ave,34471,29.160913,-82.099878,Ocala,FL,"Restaurant,Pizza Place"
AVwdq_TbkufWRAb58MTZ,114 10th Ave,10011,40.743986,-74.006662,New York,NY,"Restaurant,Pizza Place Chelsea,Pizza Place"
AVwdjxUSkufWRAb57E_-,1970 River Rd,97404,44.093664000000004,-123.129497,Eugene,OR,"Pizza Place,Pizza Place River Road"
AVweQZoHIN2L1WUf3WDI,1401 S Drake Rd,49006,42.277333,-85.647949,Kalamazoo,MI,Pizza Place
AVwcmNP-ByjofQCxgDzq,13508 University Plaza St,33613,28.069619,-82.429735,Tampa,FL,"Pizza Place Village of Tampa,Restaurant,Pizza Place"
AVwcfV2__7pvs4fzvoFR,3648 Welsh Rd,19090,40.15274,-75.13731899999999,Willow Grove,PA,"Pizza,Restaurant,Pizza Place,Restaurants,Italian Restaurants"
AVwdA86bkufWRAb51aSL,4741 SE Hawthorne Blvd,97215,45.512119,-122.61313700000001,Portland,OR,"Pizza,Restaurant,Pizza Restaurants,Pizza Place,Restaurants,Italian Restaurants"
AVweQrUdkufWRAb5BYm6,2031 S Mooney Blvd,93277,36.310677,-119.316184,Visalia,CA,"Restaurant,Pizza Place"
AVz5v4qj3D1zeR_xDF23,665 Highway 17 S,29575,33.608058,-78.985334,Myrtle Beach,SC,"Restaurant,Pizza Place"
AVwc_DMFkufWRAb51GLe,850 Madison Ave,12208,42.660664000000004,-73.782323,Albany,NY,Pizza Place
AVwej5h0kufWRAb5EGD-,3550 Stine Rd,93309,35.317431,-119.051791,Bakersfield,CA,"Restaurant,Pizza Place"
AVwc0GUPIN2L1WUfpLrS,10501 NE Highway 99,98686,45.698009000000006,-122.653399,Vancouver,WA,"Restaurant,Pizza Place"
AVwciA5D_7pvs4fzwHkK,3605 Sandy Plains Rd,30066,34.03777,-84.46465,Marietta,GA,Pizza Place
AVwcx47C_7pvs4fzy4Vt,1678 Beavercreek Rd,97045,45.332813,-122.58434199999999,Oregon City,OR,"Restaurant,Pizza Place"
AVwecuNJ_7pvs4fzDFKa,2800 Coors Blvd NW,87120,35.113712,-106.701264,Albuquerque,NM,"Restaurant,Pizza Place"
AVzxr_XS3D1zeR_xC1b8,2828 Prairie Lakes Dr,53590,43.167134000000004,-89.270809,Sun Prairie,WI,"Restaurant,Pizza Place"
AVwdjox-_7pvs4fz7DkV,2000 Main St,90405,34.006721,-118.488546,Santa Monica,CA,"Restaurant,Pizza Place"
AWEKUwHva4HuVbedMDOG,12522 W Sunrise Blvd,33323,26.145508,-80.31699,Fort Lauderdale,FL,"Restaurant,Pizza Place"
AVwd2JnukufWRAb59wtg,4 Railroad Ave,13820,42.453921,-75.050115,Oneonta,NY,"American Restaurant,Pizza Place"
AVwdO_x0kufWRAb53uUi,1225 Route 9G,12538,41.796857,-73.913841,Hyde Park,NY,"Pizza,Restaurant,Italian restaurants,Pizza Place,Restaurants"
AVwcvKxp_7pvs4fzyaXK,400 E State Highway 260,85541,34.241859999999996,-111.31902,Payson,AZ,"Pizza Place,Restaurants"
AVwckMTI_7pvs4fzwg9T,5500 Academy Rd NE,87109,35.146899,-106.582233,Albuquerque,NM,"Restaurant,Pizza Place"
AWEKUMJhIxWefVJww04Z,130 Country Ln,71360,31.279766,-92.45963,Pineville,LA,"Restaurant,Pizza Place"
AVwdkQ45kufWRAb57J44,1605 2nd St,77586,29.562717,-95.024397,Seabrook,TX,"Pizza,Restaurant,Pizza Place,Restaurants"
AV0Hj-KfLD2H7whiYXgb,901 Loveland Madeira Rd,45140,39.261191,-84.270915,Loveland,OH,"Restaurant,Pizza Place"
AVwdH9fNByjofQCxlv0m,22149 Governors Hwy,60471,41.485918,-87.71248,Richton Park,IL,"Pizza,Restaurant,Pizza Place,Food & Entertainment,Restaurants"
AVwcim01kufWRAb5wTUx,218 Ashford Ave,10522,41.014003,-73.85878199999999,Dobbs Ferry,NY,"Restaurant,Pizza Place"
AVwcpauAkufWRAb5xfzw,1016 S Main St,76086,32.747276,-97.79780600000001,Weatherford,TX,"Restaurant,Pizza Place"
AVwc1TPlByjofQCxir-6,4961 Sheridan St,33021,26.034551999999998,-80.194684,Hollywood,FL,Pizza Place
AVwci8oXByjofQCxfcwV,2803 James Redman Pkway,33566,27.985165000000002,-82.122334,Plant City,FL,Pizza Place
AVwcqoA0ByjofQCxg1po,1800 Euclid Ave,44115,41.50112,-81.67869300000001,Cleveland,OH,"Pizza,Restaurant,Pizza Place,Restaurants"
AVwcr9AjIN2L1WUfnxwj,1853 Richmond Ave,77098,29.734111,-95.406775,Houston,TX,"Pizza,Restaurant,Pizza Place,Restaurants"
AVwcxOp2kufWRAb5y08U,424 Atlantic Ave,23451,36.833662,-75.971056,Virginia Beach,VA,Pizza Place
AVwdEyR6kufWRAb52C9H,5859 Ridge Rd,44129,41.4033,-81.7344,Cleveland,OH,"Pizza,Take Out Restaurants,Pizza Place,Restaurants"
AVwdD2SF_7pvs4fz117M,345 S 8th St,83702,43.6138,-116.2055,Boise,ID,"Pizza,Pizza Restaurants,Pizza Place,Restaurants"
AVwcrh06ByjofQCxhACw,11200 Highway 62,97524,42.473133000000004,-122.81132,Eagle Point,OR,"Pizza,Restaurant,Pizza Place,Pizza Restaurant,Restaurants"
AVwedDIFIN2L1WUf5EQr,1817 Ygnacio Valley Rd,94598,37.9178,-122.039,Walnut Creek,CA,"Pizza,Take Out Restaurants,Pizza Place,Restaurants"
AVwdEi7CIN2L1WUfr6of,551 Haight St,94117,37.772,-122.4313,San Francisco,CA,"Pizza,Restaurant,Pizza Place Lower Haight,Pizza Place,Restaurants"
AVwc3EBOIN2L1WUfpsAI,1206 Orange Ave,92118,32.6836,-117.1789,Coronado,CA,"Pizza,Restaurant,Italian restaurants,Pizza Place,Restaurants"
AVwcpi-ZkufWRAb5xhN7,321 Douglas Ave,49424,42.7986,-86.1229,Holland,MI,"Pizza,Restaurant,Caterers,shop,Pizza Place,Restaurants"
AVwdX5nbIN2L1WUfvJMl,3000 Packard St,48108,42.2451,-83.7001,Ann Arbor,MI,"Pizza Place,Catering,Restaurants"
AVwdpdL-_7pvs4fz79El,21678 Stevens Creek Blvd,95014,37.3228,-122.0536,Cupertino,CA,"Pizza Place,Restaurants"
AVwdLGOakufWRAb53DYk,235 N Leroy St,48430,42.7983,-83.7052,Fenton,MI,"Restaurant,Pizza Place,Restaurants"
AVwdlYNFkufWRAb57UZm,131 W Main St,40202,38.2566,-85.75299999999999,Louisville,KY,"Pizza,Restaurant,American restaurants,Pizza Place,Restaurants"
AVwdX_4y_7pvs4fz5OjG,342 Maple St,30117,33.577,-85.0801,Carrollton,GA,"Pizza Place,Restaurants"
AVzBEkv4LD2H7whiWL1y,2622 El Camino Real Ste B,92008,33.1759,-117.3258,Carlsbad,CA,"Restaurant,Pizza Place,Restaurants"
AVwc2CMB_7pvs4fzzjb7,103 W Kirby Ave,61820,40.0978,-88.2457,Champaign,IL,"Pizza,Restaurant,Pizza Place,Restaurants"
AVyir6qeYuCoGd6wM3A0,5801 College Ave,94618,37.8463,-122.2522,Oakland,CA,"Pizza,Restaurant,Pizza Restaurants,Italian,Pizza Place,Restaurants"
AVwcuX1uIN2L1WUfoMC2,1101 Blanding Blvd,32065,30.1311,-81.7836,Orange Park,FL,"Restaurant,Pizza Place,Restaurants"
AVwdSdbKByjofQCxnhyr,12430 Seal Beach Blvd,90740,33.7815,-118.0716,Seal Beach,CA,"Pizza,Restaurant,Chain Restaurant,Pizza Place,Restaurants"
AVwdLAYbIN2L1WUfs886,6600 Topanga Canyon Blvd,91303,34.1905,-118.6049,Canoga Park,CA,"Restaurant,Pizza Place Warner Center,Pizza Place,Restaurants"
AVwchSW2_7pvs4fzv-hI,1223 W Yosemite Ave,95337,37.7982,-121.2367,Manteca,CA,"Restaurant,Pizza Place,Restaurants"
AVwczs7eByjofQCxiZ9B,480 Eureka Rd,48192,42.1999,-83.1559,Wyandotte,MI,"Pizza Place,Restaurants"
AVwcnClr_7pvs4fzxBaU,17125 Conant St,48212,42.419,-83.064,Hamtramck,MI,"Restaurant,Pizza Place,Restaurants"
AVwdIL3JIN2L1WUfsfTq,3321 Stadium Dr,49008,42.2716,-85.6317,Kalamazoo,MI,"Pizza,Restaurant,Pizza Place,Catering,Restaurants"
AVwcsSdRkufWRAb5x_sx,4973 Diane Ave,92117,32.8357,-117.1869,San Diego,CA,"Pizza,Restaurant,Pizza Place,Restaurants"
AVwcqxhfIN2L1WUfnkDX,2892 E Dupont Rd,46825,41.1788,-85.1066,Fort Wayne,IN,"Pizza Place,Restaurants"
AV0ZSc1GLD2H7whiZK5A,405 W Canfield Ave,83815,47.7335,-116.7935,Coeur d'Alene,ID,"Pizza,Restaurant,American Restaurant,Pizza Place,Restaurants"
AVwdGqNJIN2L1WUfsP0_,9 N Elmwood Dr,60506,41.7627,-88.3398,Aurora,IL,"Pizza Place,Restaurants"
AVwdDBdO_7pvs4fz1s1N,1039 Sunnyvale Saratoga Rd,94087,37.3587,-122.0325,Sunnyvale,CA,"Pizza Place,Catering,Restaurants"
AVwcw735IN2L1WUfoo1p,6801 Hollywood Blvd,90028,34.102,-118.3404,Los Angeles,CA,"Pizza,Restaurant,Chain Restaurant,Pizza Place,Restaurants"
AVwcgGDnkufWRAb5v1iF,120 Dwyer St,93637,36.951971,-120.080625,Madera,CA,"Restaurant,Pizza Place"
AVwcmtFuByjofQCxgJak,807 Highland Ave,15601,40.29285,-79.54140600000001,Greensburg,PA,Pizza Place
AVwdggM0kufWRAb56lMJ,341 S Limestone,40508,38.042803,-84.502579,Lexington,KY,"Pizza,Pizza Place Historic South Hill,Pizza Place,Restaurants"
AVwcsXVrkufWRAb5yAcn,6541 Hollywood Blvd,90028,34.1018,-118.3324,Los Angeles,CA,"Pizza,Restaurant,Pizza Place,Restaurants"
AVwc_DPlkufWRAb51GL2,746 E Aurora Rd,44056,41.313874,-81.51174300000001,Macedonia,OH,Pizza Place
AVwcvsasByjofQCxhtzV,44 S Broadway,80209,39.715726000000004,-104.98718799999999,Denver,CO,"Pizza,American Restaurants,Restaurant,Pizza Restaurants,Caterers,Pizza Place,Restaurants"
AVwcjxv-kufWRAb5wgnz,8125 Lefferts Blvd,11415,40.708870000000005,-73.830499,Kew Gardens,NY,"Pizza,Restaurant,Pizza Place,Restaurants,Italian Restaurants"
AVwc1nl-kufWRAb5zjFp,2305 Boonville Rd,77808,30.6735,-96.3353,Bryan,TX,"Restaurant,Pizza Place,Restaurants"
AVwc1D3-kufWRAb5zdi7,3910 Vista Way,92056,33.18448,-117.29368999999998,Oceanside,CA,"Pizza,Restaurant,Pizza Place,Restaurants"
AVwdH7fvIN2L1WUfscyO,601 S Chester Rd,19081,39.891769000000004,-75.3527,Swarthmore,PA,Pizza Place
AV8Px0JMa4HuVbedFxPg,38 E 23rd St,10010,40.74069,-73.987264,New York,NY,"Pizza,Restaurant,Italian,Pizza Place"
AVwcsHTTIN2L1WUfnzi2,219 Fieldstown Rd,35071,33.651412,-86.812673,Gardendale,AL,Pizza Place
AVwdIokdByjofQCxl2Qy,3700 Meachem Rd,53405,42.68899999999999,-87.8359,Racine,WI,"Pizza,Restaurant,Italian restaurants,Pizza Place,Restaurants"
AVwdNfWN_7pvs4fz3cK3,231 E North Ave,53212,43.0602,-87.9086,Milwaukee,WI,"Pizza Place,Restaurants"
AVweTmKmkufWRAb5Bx08,56 Niagara St,14202,42.885172,-78.876925,Buffalo,NY,"Pizza,Restaurant,American restaurants,Pizza Place,Restaurants"
AVwddQjC_7pvs4fz6GKd,133 S Main St,66067,38.615476,-95.268569,Ottawa,KS,Pizza Place
AVzRTr_5LD2H7whiWdKA,14127 River Rd,95690,38.2389,-121.5289,Walnut Grove,CA,"Restaurant,Pizza Place,Restaurants"
AVwcgUvRkufWRAb5v4E-,1845 W Broad St,23220,37.5565,-77.4604,Richmond,VA,"Pizza,Restaurant,Pizza Restaurants,American restaurants,Pizza Place,Restaurants"
AVweG3QiByjofQCxvVWK,3475 E Layton Ave,53110,42.9588,-87.8628,Cudahy,WI,"Restaurant,Pizza Place,Restaurants"
AVzA0ufBLD2H7whiWEd4,508 Castro Street,94114,37.760646,-122.435151,San Francisco,CA,Pizza Place
AVweIXe-ByjofQCxviU3,815 5th Ave N,98109,47.626822,-122.34773799999999,Seattle,WA,"Pizza Place Lower Queen Anne,Pizza Place"
AVzBCnBuLD2H7whiWK82,2 Independent Drive,32202,30.3246,-81.6613,Jacksonville,FL,Pizza Place
AVzA1UXKFcQ3k02bBXPQ,27 Avenue B,10009,40.7222599,-73.9829462,New York,NY,"Pizza Place,Restaurant,Pizza"
AV0aKvE0LD2H7whiZV8L,990 S Odell Ave,65340,39.1114,-93.1948,Marshall,MO,"Restaurant,Pizza Place,Restaurants"
AVyisN7VgXLl9CNj_AQu,1201 E Broadway,65201,38.9518,-92.3241,Columbia,MO,"Restaurant,Pizza Place,Restaurants"
AVwcr7NOIN2L1WUfnxZG,520 W Main Ave,99201,47.6592,-117.4205,Spokane,WA,"Restaurant,Pizza Place,Pizza Place Riverside,Restaurants"
AVwcmzDUkufWRAb5xDBI,1005 S Georgia St,79102,35.2043,-101.8659,Amarillo,TX,"Pizza,Carry-out food,Pizza Place,Restaurants"
AVwcqiu8IN2L1WUfnhmu,4007 John Ben Shepperd Pkwy,79762,31.8897,-102.3328,Odessa,TX,"Pizza Place,Restaurant"
AVwcrdJzkufWRAb5x2bQ,1320 Mockingbird Ln,75482,33.1147,-95.5925,Sulphur Springs,TX,"Restaurant,Pizza Place,Restaurants"
AVyir8ZVYuCoGd6wM3B2,108 Franklin St NE,98501,47.0451,-122.8991,Olympia,WA,"Restaurant,Pizza Place,Restaurants"
AV1c1O9Ia4HuVbed5dbu,128 W Lancaster Ave,19087,40.0438,-75.3903,Wayne,PA,"Pizza,Restaurant,Food Delivery,Pizza Place,Restaurants"
AVwed5YIIN2L1WUf5Mc3,11025 Jones Bridge Rd,30022,34.0497,-84.2204,Alpharetta,GA,"Pizza Place,Restaurants"
AVwedgI9ByjofQCxyal_,2283 W Market St,44313,41.117902,-81.58839,Akron,OH,"Pizza,Restaurant,Pizza Place Northwest Akron,Pizza Place,Sandwiches,Restaurants"
AVwcyvSYByjofQCxiPVG,6014 Radio Rd,34104,26.1539,-81.74,Naples,FL,"Pizza Place Berkshire Lakes,Pizza Place,Restaurants"
AVwdnmIzByjofQCxq5dU,1706 University Ave,94703,37.870827,-122.277229,Berkeley,CA,"Pizza,Restaurant,Pizza Place,Restaurants,Italian Restaurants"
AVwdYY6SIN2L1WUfvNww,2507 South Rd,12601,41.656607,-73.939494,Poughkeepsie,NY,"Italian Restaurant,Pizza Place,Italian Restaurant and Pizza Place"
AVwdr4p7kufWRAb58U-w,2688 W 9000 S,84088,40.588116,-111.95747800000001,West Jordan,UT,"Restaurant,Pizza Place"
AVwdL2LFIN2L1WUftGli,2450 Crystal Dr,22202,38.851841,-77.049902,Arlington,VA,"Pizza,Restaurant,Pizza Place,Restaurants"
AVwdL1rC_7pvs4fz3JvT,559 Winecoff School Rd,28027,35.44303487,-80.62424435,Concord,NC,"Pizza,Pizza Place,Restaurants"
AVwc4eQA_7pvs4fzz9ox,6061 Fresh Pond Rd,11378,40.71536,-73.90137,Maspeth,NY,"Pizza,Restaurant,Pizza Place,Restaurants"
AVzA0uuI-gnIPe8DSbz6,208 Beach 116th St,11694,40.580076,-73.837317,Rockaway Park,NY,"Restaurant,Pizza Place,Restaurants"
AVwcgG4LkufWRAb5v1pn,6100 Riverdale Ave,10471,40.910131,-73.902837,Bronx,NY,"Pizza,Restaurant,American restaurants,Pizza Place,Restaurants"
AVwdzfCC_7pvs4fz9agm,552 W Arrow Hwy,91773,34.103462,-117.818347,San Dimas,CA,"Pizza,Restaurant,Pizza Place,Restaurants"
AVwc7Yx-ByjofQCxjt4-,1066 Gayley Ave,90024,34.060987,-118.44693899999999,Los Angeles,CA,"Pizza,Restaurant,Pizza Place Westwood Village,Pizza Restaurants,American restaurants,Italian restaurants,Pizza Place,Restaurants"
AVwcxpLzIN2L1WUfoxQQ,2091 E Orangethorpe Ave,92870,33.866934,-117.81888400000001,Placentia,CA,"Pizza,American Restaurants,Pizza Place,Restaurants"
AVwcnKpBByjofQCxgO1d,4964 W 190th St,90503,33.857817,-118.36398500000001,Torrance,CA,"Pizza,Restaurant,Karaoke,Pizza Place,Restaurants"
AVzBBgtp-gnIPe8DShf1,1249 Washington Ave,33139,25.783773999999998,-80.132097,Miami Beach,FL,"Pizza,Restaurant,Pizza Place,Restaurants"
AVweT0Yg_7pvs4fzB3N3,705 S Main St,76248,32.925616999999995,-97.253625,Keller,TX,"Pizza,Restaurant,Pizza Place,Restaurants"
AV0Zn10S3D1zeR_xEGps,349 Northampton St,18042,40.691159000000006,-75.210755,Easton,PA,"Pizza,Restaurant,Italian restaurants,Pizza Place,Restaurants"
AVzxlXO7FcQ3k02bDJMD,2102 S Eagle Rd,18940,40.23015,-74.94066,Newtown,PA,"Pizza,Restaurant,Pizza Place,Restaurants"
AVwcib-CByjofQCxfWh8,8125 3rd Ave,11209,40.626484999999995,-74.029692,Brooklyn,NY,"Pizza,Restaurant,Pizza Place,Restaurants"
AVwc6BmHByjofQCxje4i,8285 E Santa Ana Canyon Rd,92808,33.867874,-117.744221,Anaheim,CA,"Restaurant,Pizza Place"
AVzn83WS-gnIPe8DT1pw,202 Moon Clinton Rd,15108,40.5131,-80.2232,Coraopolis,PA,"Restaurant,Pizza Place,Restaurants"
AVzBBCur-gnIPe8DShI1,2525 6th Ave,98121,47.618081,-122.344591,Seattle,WA,"Pizza,Restaurant,American restaurants,Pizza Place,Restaurants"
AVwc9pWUIN2L1WUfqyp5,161 N Main St,53095,43.42459003,-88.183097,West Bend,WI,"Pizza,Karaoke,Pizza Place,Restaurants"
AVwdQOW2kufWRAb538oz,950 W Addison St,60613,41.9475,-87.65392,Chicago,IL,"Pizza,Restaurant,Pizza Place,Restaurants,Italian Restaurants"
AVzA1VeZ3D1zeR_xA_zB,8906 Northern Blvd,11372,40.755993,-73.878493,Jackson Heights,NY,"Pizza,Restaurant,Italian Restaurant,Pizza Place,Restaurants"
AVzA-oMFFcQ3k02bBakG,3449 Lincoln Hwy,19372,39.995593,-75.74939499999999,Thorndale,PA,"Pizza,Italian Restaurant,Restaurant,Pizza Place,Restaurants"
AVwd_F2tkufWRAb5-_sN,5 Udall Rd,11795,40.710463,-73.306392,West Islip,NY,"Restaurant,Pizza Place"
AVwdEPBhkufWRAb518-b,1000 Northside Dr NW,30318,33.781799,-84.40786800000001,Atlanta,GA,Pizza Place
AVzA9vvB-gnIPe8DSfLZ,4501 Interlake Ave N,98103,47.66174,-122.340919,Seattle,WA,"Pizza,Restaurant,Italian,Greek Restaurant,Pizza Place"
AVwcp13O_7pvs4fzxgJ7,28957 Woodward Ave,48072-0916,42.50285,-83.17263,Berkley,MI,"Pizza,Restaurant,Pizza Place,Restaurants"
AVwcqC0WIN2L1WUfnb8Z,6 Stony Hill Rd,06801-1053,41.41741,-73.39989,Bethel,CT,"Italian Restaurant,Restaurant,Pizza Place,Italian Restaurant and Pizza Place"
AVwemIVvByjofQCxzs0l,257 S Little Tor Rd,10956,41.130974,-74.00194300000001,New City,NY,"Pizza,Restaurant,Italian restaurants,Pizza Place,Restaurants"
AVwclV0mByjofQCxf5kk,138 4th Ave,11217,40.6803,-73.9814,Brooklyn,NY,"Pizza,Restaurant,Take Out,Pizza Place Boerum Hill,Pizza Place,Restaurants,Pizza Delivery"
AVwdAruU_7pvs4fz1UXf,1712 Taraval St,94116,37.742872999999996,-122.48455600000001,San Francisco,CA,"Pizza,Restaurant,Italian restaurants,Pizza Place,Restaurants"
AVweARPmkufWRAb5_Jos,7606 E Chapman Ave,92869,33.790675,-117.787695,Orange,CA,"Pizza,Restaurant,Pizza Place,Restaurants"
AVyoBcoZKV4T4IkwNdNa,1563 Decatur St,11385,40.69377,-73.902496,Ridgewood,NY,"Restaurant,Pizza Place,Restaurants"
AVweXeWPkufWRAb5CS4b,850 Nostrand Ave,11225,40.668858,-73.95085999999999,Brooklyn,NY,"Pizza,Restaurant,Pizza Place,Restaurants,Italian Restaurants"
AVwd1XGaIN2L1WUfzoH9,258 S Highland Ave,15206,40.457190999999995,-79.925282,Pittsburgh,PA,"Pizza,American restaurants,Pizza Place,Restaurants"
AVwc0nijByjofQCxikeJ,1772 E Colorado Blvd,91106,34.145920000000004,-118.11391,Pasadena,CA,"Pizza,Restaurant,Chain Restaurant,Pizza Place,Restaurants"
AVwdBSkn_7pvs4fz1asF,1127 N Lawrence Expy,94089,37.39696,-121.995843,Sunnyvale,CA,"Pizza,Restaurant,Italian restaurants,Pizza Place,Restaurants"
AVwd1MRDIN2L1WUfzmcM,574 E Fordham Rd,10458,40.858717999999996,-73.885875,Bronx,NY,"Pizza,Restaurant,Pizza Place,Restaurants"
AVwcvc2hIN2L1WUfoX4d,29 E Cross St,21230,39.276922,-76.61353299999999,Baltimore,MD,"Pizza,Restaurant,American restaurants,Pizza Place,Restaurants"
AVwce9LkByjofQCxevFF,5716 Locke Ave,76107,32.732377,-97.408932,Fort Worth,TX,"Pizza,Pizza Place Ridglea North,Pizza Place,Restaurants"
AVzA1e5RLD2H7whiWFUL,221 Avenue A,10009,40.730225,-73.98078199999999,New York,NY,"Pizza,Restaurant,Italian,Pizza Place,Restaurants"
AVzA1PiLLD2H7whiWFGF,135 W 116th St,10026,40.802822,-73.951198,New York,NY,"Pizza,Restaurant,Pizza Restaurants,Italian restaurants,Pizza Place,Restaurants"
AVwdqg_i_7pvs4fz8H6p,10720 Preston Rd,75230,32.89433131,-96.80348659,Dallas,TX,"Pizza,Pizza Restaurants,International restaurants,Bakery,Pizza Place,Restaurants"
AVwds0xNkufWRAb58dNZ,440 S Oyster Bay Rd,11801,40.780590000000004,-73.503973,Hicksville,NY,"Pizza,Restaurant,Italian restaurants,Pizza Place,Restaurants"
AVwciw0ckufWRAb5wVIL,6038 Castor Ave,19149,40.035227,-75.081675,Philadelphia,PA,"Pizza,Restaurant,Pizza Place,Restaurants"
AVwdEoBAByjofQCxlOIF,28985 Joy Rd,48185,42.354690000000005,-83.32826,Westland,MI,"Pizza,Restaurant,American restaurants,Pizza Place,Restaurants"
AVwdR-MJByjofQCxnctV,1604 E Forsyth St,31709,32.072538,-84.207015,Americus,GA,Pizza Place
AVwczT9V_7pvs4fzzHVA,3740 Sauk Trl,60471,41.48465,-87.7066,Richton Park,IL,Pizza Place
AVzA2bi53D1zeR_xBAqo,725 Hillside Ave,11040,40.742774,-73.694985,New Hyde Park,NY,"Restaurant,Pizza Place"
AVwcnHv9_7pvs4fzxChl,2128 Deer Park Ave,11729,40.773244,-73.334446,Deer Park,NY,"Pizza,Pizza Place"
AVwd1S-QkufWRAb59pbG,330 Palmetto Ave,94044,37.651844,-122.491104,Pacifica,CA,"Restaurant,Pizza Place"
AVwd9JyiIN2L1WUf0syj,25381 Railroad Canyon Rd,92532,33.668995,-117.263902,Lake Elsinore,CA,Pizza Place
AVwdOsc3_7pvs4fz3pR9,16060 Ventura Blvd,91436,34.156216,-118.483204,Encino,CA,"Restaurant,Pizza Place"
AVwd8OqH_7pvs4fz-nPq,8232 Carnegie Ave,44103,41.503402,-81.629316,Cleveland,OH,"Pizza,Pizza Place,Pizza Place Fairfax"
AVwdYonT_7pvs4fz5U7M,7141 S Eastern Ave,89119,36.059636,-115.11943400000001,Las Vegas,NV,"Pizza,Restaurant,Pizza Restaurants,Fast Food,Pizza Place,Restaurants"
AVwcngAWkufWRAb5xLDm,8100 Highway 6 N,77095,29.902158,-95.635601,Houston,TX,"Chinese Restaurant,Pizza Place"
AVwdKBahIN2L1WUfsyOv,51074 Romeo Plank Rd,48044,42.673294,-82.940409,Macomb,MI,"Restaurant,Pizza Place,Restaurants"
AVwdGMqQIN2L1WUfsLSd,522 S Roselle Rd,60193,42.017728999999996,-88.081497,Schaumburg,IL,Pizza Place
AVwd2TXrByjofQCxtCfs,136 E Irving Park Rd,60191,41.962902,-87.977347,Wood Dale,IL,Pizza Place
AVwdbYP0_7pvs4fz5yhd,1101 S 119th St,68144,41.248259000000004,-96.09875100000001,Omaha,NE,"Restaurant,Pizza Place"
AVwcxamf_7pvs4fzyzX9,217 Bridge St,19460,40.134042,-75.517065,Phoenixville,PA,Pizza Place
AVwcr_LIkufWRAb5x8Y3,544 Ontario St,14207,42.958246,-78.896041,Buffalo,NY,"Pizza,Pizza Restaurants,Pizza Place,Restaurants"
AVzA2hNV-gnIPe8DSdd5,51 Spring St,10012,40.722028,-73.996423,New York,NY,"Pizza,Italian Restaurant,Restaurant,Italian,Pizza Place"
AVweJ4s1ByjofQCxvwGM,323 7th Ave,11215,40.667034,-73.981452,Brooklyn,NY,"Pizza,Italian Restaurant,Restaurant,Italian,Pizza Place"
AVzA3dA9-gnIPe8DSd4P,7404 37th Ave,11372,40.748964,-73.891715,Jackson Heights,NY,"Pizza,Restaurant,Pizza Place"
AVwc0W7GkufWRAb5zWGR,7414 5th Ave,11209,40.629870000000004,-74.02249,Brooklyn,NY,"Pizza,Italian Restaurant,Restaurant,Italian,Pizza Place"
AVwdy_3zkufWRAb59VXd,1307 Myrtle Ave,11221,40.698128000000004,-73.925081,Brooklyn,NY,"Pizza,Restaurant,Wings,Pizza Place"
AVzA3OZq-gnIPe8DSdxw,278 Bleecker St,10014,40.731674,-74.003381,New York,NY,"Pizza,Restaurant,Italian,American,Pizza Place,Restaurants"
AVzA1A8fLD2H7whiWE4E,19 1st Ave,10003,40.723667999999996,-73.988546,New York,NY,"Pizza,Italian Restaurant,Restaurant,Italian,Pizza Place"
AVwcnS07_7pvs4fzxEZm,44 Water St,10004,40.703556,-74.01001099999999,New York,NY,"Pizza,Restaurant,Pizza Place"
AVzA0xan3D1zeR_xA_Il,413 8th Ave,10001,40.750052000000004,-73.995007,New York,NY,"Pizza,Restaurant,Pizza Place"
AVzA2dZbFcQ3k02bBYKZ,592 3rd Ave,10016,40.748789,-73.97625500000001,New York,NY,"Pizza,Restaurant,Italian,Pizza Place"
AVwdo9AokufWRAb573oe,85 5th Ave,11215,40.680023,-73.978003,Brooklyn,NY,"Pizza,Restaurant,Italian,Pizza Place,Sandwiches"
AVwd1dc_IN2L1WUfzpBw,140 S Hope Ave,93105,34.436726,-119.74868799999999,Santa Barbara,CA,"Restaurant,Pizza Place"
AVweBjlFkufWRAb5_VFm,4218 W Overland Rd,83705,43.589757,-116.234494,Boise,ID,"Pizza,Restaurant,Pizza Place,Restaurants"
AVweVSn__7pvs4fzCEJw,1150 S Gilbert Rd,85296,33.32911,-111.790677,Gilbert,AZ,"Italian Restaurant,Pizza Place,Italian Restaurant and Pizza Place"
AVzA3WcQFcQ3k02bBYim,3661 Waldo Ave,10463,40.887121,-73.904301,Bronx,NY,"Restaurant,Pizza Place"
AVwc1RzZ_7pvs4fzzcRx,5660 Mosholu Ave,10471,40.905048,-73.901438,Bronx,NY,"Restaurant,Pizza Place North Riverdale,Pizza Place"
AV0BH9GWFcQ3k02bDmLF,1447 State Highway 248,65616,36.662774,-93.240597,Branson,MO,"Restaurant,Pizza Place"
AVwdY_EjIN2L1WUfvUUw,14637 Memorial Dr,77079,29.770062,-95.60798100000001,Houston,TX,"Restaurant,Pizza Place,Arcade"
AVwdZl72_7pvs4fz5ffB,820 12th Ave S,34102,26.13263,-81.79471600000001,Naples,FL,"Restaurant,Pizza Place"
AVweYqieIN2L1WUf4c9l,13915 N Dysart Rd,85335,33.61057,-112.341209,El Mirage,AZ,"Pizza,Restaurant,Pizza Place,Restaurants,Italian Restaurants"
AVwd8v1r_7pvs4fz-r5k,4606 W Diversey Ave,60639,41.931591999999995,-87.741939,Chicago,IL,"Restaurant,Pizza Place Kelvin Park,Pizza Place"
AVwcy0qKByjofQCxiQUN,90 Livingston St,11201,40.691266999999996,-73.990643,Brooklyn,NY,"New York City,Restaurant,Pizza Place Downtown Brooklyn,Pizza Place"
AVwdljodkufWRAb57WJX,1201 Strassner Dr,63144,38.622946,-90.33496600000001,Saint Louis,MO,"Restaurant,BBQ Joint,Pizza Place,Pizza Place and BBQ Joint"
AVzBGaGv-gnIPe8DSjvI,4200 Gosford Rd,93313,35.31707,-119.09156000000002,Bakersfield,CA,"Restaurant,Pizza Place"
AVwd9DKbIN2L1WUf0rzs,2000 South Blvd,28203,35.209278000000005,-80.860679,Charlotte,NC,"Restaurant,Pizza Place"
AVzd0JAlLD2H7whiXHUK,7512 W Hillsborough Ave,33615,27.996336,-82.563664,Tampa,FL,"Restaurant,Pizza Place"
AVwdVdSUByjofQCxoBWV,2503 N Harrison St,22207,38.897379,-77.139212,Arlington,VA,"Restaurant,Pizza Place"
AVwdQ5_1_7pvs4fz4Ct7,1550 Wilson Blvd,22209,38.89418,-77.076237,Arlington,VA,"Italian Restaurant,Restaurant,Pizza Place,Italian Pizza"
AVzBAF7uLD2H7whiWJM-,1524 Valley Dr,13207,43.002765999999994,-76.153465,Syracuse,NY,"Restaurant,Pizza Place"
AVzA1vVjFcQ3k02bBXob,22 W Main St,11772,40.765725,-73.015683,Patchogue,NY,"Restaurant,Pizza Place"
AVwcmgKi_7pvs4fzw7E3,3325 28th St,80301,40.035269,-105.259768,Boulder,CO,"Restaurant,Pizza Place"
AVwcmZPx_7pvs4fzw5zH,12407 N Mo Pac Expy,78758,30.416873,-97.70493499999999,Austin,TX,"Restaurant,Pizza Place"
AVwc6Z2KByjofQCxjjS-,2077 Newpark Mall,94560,37.52823,-122.00024499999999,Newark,CA,"Pizza,Restaurant,Chain Restaurant,Pizza Place,Restaurants"
AVzoFn2nLD2H7whiXiru,689 Parkway Plz,92020,32.804533,-116.96654199999999,El Cajon,CA,"Pizza,Restaurant,Italian,Chain Restaurant,Pizza Place"
AVzA9W0M3D1zeR_xBCHV,7002 Johnson Dr,66202,39.022612,-94.66632299999999,Mission,KS,"Restaurant,Pizza Place,Restaurants"
AVwdPmH5IN2L1WUftvyN,1300 Pittsburgh St,15024,40.541076000000004,-79.802482,Cheswick,PA,"Restaurant,Pizza Place"
AVwdXipnByjofQCxoYMZ,7312 Louetta Rd,77379,30.020865999999998,-95.524098,Spring,TX,"Restaurant,Pizza Place"
AVz8WD8ZLD2H7whiYQoW,2626 Research Forest Dr,77381,30.177428000000003,-95.477531,Spring,TX,"Restaurant,Pizza Place"
AVwdjL3vByjofQCxqNaP,3421 W William Cannon Dr,78745,30.212961,-97.82944,Austin,TX,"Restaurant,Pizza Place"
AVwd_XEnkufWRAb5_CA4,29347 Gratiot Ave,48066,42.512938,-82.926937,Roseville,MI,"Restaurant,Pizza Place"
AVwc9VhBIN2L1WUfqvgD,2200 E Thousand Oaks Blvd,91362,34.174461,-118.844574,Thousand Oaks,CA,"Restaurant,Pizza Place"
AVwdcxPn_7pvs4fz6Bnl,1735 Arden Way,95815,38.599467,-121.42662,Sacramento,CA,"Restaurant,Pizza Place,Pizza Place Arden Fair"
AVwdml2t_7pvs4fz7g6d,3315 N Town East Blvd,75150,32.801953999999995,-96.646622,Mesquite,TX,"Restaurant,Pizza Place"
AVwco5uGkufWRAb5xabC,1133 N University Dr,75961,31.611437,-94.64002099999999,Nacogdoches,TX,"Restaurant,Pizza Place"
AVweRlqe_7pvs4fzBj09,500 Lakewood Center Mall,90712,33.850455,-118.140378,Lakewood,CA,"Pizza,Restaurant,Italian,Pizza Place,Salad,Californian"
AVzBGRKZFcQ3k02bBecq,11677 San Vicente Blvd,90049,34.054118,-118.46511000000001,Los Angeles,CA,"Restaurant,Pizza Place"
AVzA_BG6-gnIPe8DSgEq,1798 Ashley Road,29407,32.802518,-80.01702,Charleston,SC,"Restaurant,Pizza Place"
AVwdy2jiByjofQCxskfm,1724 E 7th Ave,33605,27.960410999999997,-82.439702,Tampa,FL,"Restaurant,Pizza Place"
AVwc2jj5IN2L1WUfpmZT,1512 E 7th Ave,33605,27.960247,-82.442426,Tampa,FL,"Restaurant,Pizza Place"
AVwcw4u7kufWRAb5yw6e,5829 Jarvis Ave,94560,37.55239,-122.04803500000001,Newark,CA,"Restaurant,Pizza Place"
AVwcfnU0ByjofQCxe2x-,113125 N Green St,60607,41.883746,-87.64828100000001,Chicago,IL,"Restaurant,Pizza Place West Town,Pizza Place,Restaurant West Town"
AVyoGcEDl8hL2jjQyUHj,11740 San Vicente Blvd,90049,34.052925,-118.467013,Los Angeles,CA,"Restaurant,Pizza Place"
AVweSH4JIN2L1WUf3ks8,3715 Patriot Way,28412,34.174503,-77.89325600000001,Wilmington,NC,"Restaurant,Pizza Place"
AWEKkfy7RxPSIh2Rrexq,300 S Roosevelt Dr,97138,45.99163,-123.92128999999998,Seaside,OR,"Restaurant,Pizza Place"
AVwdtWyRkufWRAb58iT1,2720 McCullough Ave,78212,29.455674,-98.491661,San Antonio,TX,"Pizza,Restaurant,Pizza Place,Restaurants"
AV4_eq_gRxPSIh2RgKlu,181 E Broadway,10002,40.713863,-73.9892,New York,NY,"Restaurant,Pizza Place"
AVweOW4pkufWRAb5BE1O,22 Exchange St,44308,41.076209999999996,-81.521279,Akron,OH,"Restaurant,Pizza Place Downtown Akron,Pizza Place"
AVwecXFhkufWRAb5C9mp,1251 State St,75082,33.001611,-96.70036,Richardson,TX,"Restaurant,Pizza Place"
AVwdD4WJ_7pvs4fz12Qw,33 N Lake St,60506,41.760166,-88.317748,Aurora,IL,"Restaurant,Pizza Place"
AVwc1k7u_7pvs4fzzfIe,5924 S Land Park Dr,95822,38.519271999999994,-121.51358,Sacramento,CA,"Pizza,Restaurant,Pizza Place"
AWENCOQ0a4HuVbedMjuB,8785 Center Pkwy Ste B100,95823,38.439204,-121.41898300000001,Sacramento,CA,"Restaurant,Pizza Place"
AVwePmxjIN2L1WUf3O8S,27080 John R Rd,48071,42.492126,-83.104625,Madison Heights,MI,"Restaurant,Pizza Place"
AVwdcX4XIN2L1WUfv4Tn,134 Main St,90245,33.917359000000005,-118.415554,El Segundo,CA,"Pizza,Restaurant,Pizza Place"
AVweaxKpIN2L1WUf4u5K,180 W Peckham Ln,89509,39.487041999999995,-119.79786399999999,Reno,NV,"Restaurant,Pizza Place"
AVwdNADtIN2L1WUftTHb,214 Court St,11201,40.686664,-73.99383,Brooklyn,NY,"Pizza,Restaurant,wich Place,Pizza Place,Sandwich Place"
AVwdIerO_7pvs4fz2lOb,835 Seven Hills Dr,89052,35.996804,-115.12424399999999,Henderson,NV,"Restaurant,Pizza Place"
AVwcnlya_7pvs4fzxHze,401 C St,92101,32.716570000000004,-117.16102,San Diego,CA,"Pizza,Restaurant,Pizza Place"
AVzA37NW3D1zeR_xBBSQ,201 Avenue A,10009,40.729476,-73.98124399999999,New York,NY,"Restaurant,Pizza Place"
AVwdX8MFIN2L1WUfvJmh,1040 S Washington Ave,18505,41.399429,-75.674653,Scranton,PA,"Restaurant,Pizza Place"
AVwd3uO6kufWRAb59-Kq,7120 E Becker Ln,85254,33.583141999999995,-111.92732099999999,Scottsdale,AZ,"Restaurant,Pizza Place"
AVzA04IA-gnIPe8DScBL,27661 Bouquet Canyon Rd,91350,34.443173,-118.51068500000001,Santa Clarita,CA,"Pizza,Restaurant,Pizza Place,Restaurants"
AVwcgJhE_7pvs4fzvxDh,78772 Highway 111,92253,33.712078999999996,-116.29091899999999,La Quinta,CA,"Restaurant,Pizza Place"
AVwcucRl_7pvs4fzySnA,1913 Portland Rd,97132,45.302832,-122.960347,Newberg,OR,"Restaurant,Pizza Place,Restaurants"
AWEKUDkVRxPSIh2RrNAS,2601 S Main St,54868,45.477009,-91.735141,Rice Lake,WI,"Restaurant,Pizza Place"
AVwdCs4skufWRAb51sjs,1235 Bell Ave,53027,43.31695,-88.360091,Hartford,WI,"Restaurant,Pizza Place"
AVwdFIZuIN2L1WUfsAik,1617 Summit Ave,53188,43.021826000000004,-88.25408399999999,Waukesha,WI,"Restaurant,Pizza Place"
AVwc3Sqv_7pvs4fzzxL4,321 E Spring St,75801,31.761702000000003,-95.62907299999999,Palestine,TX,"Restaurant,Pizza Place,Restaurants"
AWEKURKsRxPSIh2RrNVd,6823 Forest Hill Ave,23225,37.53818,-77.520325,Richmond,VA,"Restaurant,Pizza Place"
AVwc3AQB_7pvs4fzzt3O,2121 W Parmer Ln,78727,30.415855,-97.697148,Austin,TX,"Pizza,Restaurant,Chain Restaurant,Pizza Place"
AVwdOfne_7pvs4fz3nRx,960 N Main St,29720,34.729255,-80.775805,Lancaster,SC,"Restaurant,Pizza Place"
AVwdL8iBByjofQCxmae5,175 S Nova Rd,32174,29.276176,-81.08290600000001,Ormond Beach,FL,"Restaurant,Pizza Place"
AVweEvbwkufWRAb5_xKe,6653 Central Ave,33710,27.770846999999996,-82.729883,Saint Petersburg,FL,"Restaurant,Pizza Place"
AVwemXA6ByjofQCxzu0N,276 E Eau Gallie Blvd,32937,28.138537,-80.596461,Satellite Beach,FL,"Restaurant,Pizza Place"
AWEKTlU_RxPSIh2RrMXr,102 New Market,27025,36.397847,-79.969764,Madison,NC,"Restaurant,Pizza Place"
AVwdDoS8_7pvs4fz1zoW,211 Asheville Hwy,28791,35.3148,-82.461079,Hendersonville,NC,"Restaurant,Pizza Place"
AVwcin0J_7pvs4fzwO1i,1B New Orleans Rd,29928,32.159211,-80.752712,Hilton Head Island,SC,"Restaurant,Pizza Place"
AVweEGRtIN2L1WUf1q5T,10255 S 1300 E,84094,40.565135999999995,-111.853124,Sandy,UT,"Restaurant,Pizza Place"
AV5U-URGa4HuVbedCjVU,3637 Werk Rd,45248,39.141548,-84.62466500000001,Cincinnati,OH,"Restaurant,Pizza Place"
AVwc_cEl_7pvs4fz1HIL,8115 W Manchester Ave,90293,33.958889,-118.438278,Playa del Rey,CA,"Restaurant,Pizza Place"
AVzxo2D6FcQ3k02bDMgp,15858 Manchester Rd,63011,38.592535999999996,-90.585904,Ballwin,MO,"Restaurant,Pizza Place"
AV1mRyWBa4HuVbed70Ll,1830 Webster St,54016,44.960196,-92.732063,Hudson,WI,"Restaurant,Pizza Place"
AVwej4TLIN2L1WUf6GGP,341 Clofton Dr,37221,36.063827,-86.939213,Nashville,TN,"Restaurant,Pizza Place"
AVzBC9ph3D1zeR_xBFrC,1321 W Grand Ave,60622,41.891039,-87.659182,Chicago,IL,"Pizza,Restaurant,Pizza Place"
AVz7zf193D1zeR_xDItI,5202 Transit Rd,14043,42.89685,-78.697144,Depew,NY,"Restaurant,Pizza Place"
AVwcx6wckufWRAb5y8Vz,1860 Barnett Shoals Rd,30605,33.924903,-83.339783,Athens,GA,"Restaurant,Pizza Place"
AWEKT1cma4HuVbedMB8U,1648 E Algonquin Rd,60173,42.066064000000004,-88.037924,Schaumburg,IL,"Restaurant,Pizza Place"
AVwdWGBUkufWRAb547mH,2560 El Camino Real,94061,37.47290538,-122.2171314,Redwood City,CA,Pizza Place
AVwc53AM_7pvs4fz0NBR,1545 S Power Rd,85206,33.388018,-111.68393700000001,Mesa,AZ,"Pizza,Restaurant,Italian,Pizza Place Superstition Springs,Pizza Place,Restaurants"
AVwdh5kmIN2L1WUfwtpy,431 E Girard Ave,19125,39.970539,-75.12970200000001,Philadelphia,PA,"Restaurant,Pizza Place,Pizza Place North Philadelphia"
AVwdkgbUIN2L1WUfxHet,742 E Glendale Ave,85020,33.538759999999996,-112.06393999999999,Phoenix,AZ,"Italian Restaurant,Pizza Place"
AVwcvx1e_7pvs4fzyhWt,3435 Greystone Dr,78731,30.357105999999998,-97.74863,Austin,TX,"Pizza,Restaurant,Bar,American,Deli & Sandwich,wich Place,Sandwich Place, Bar, and Pizza Place,Pizza Place"
AVwcjjN9kufWRAb5weHQ,11200 Lakeline Mall Dr,78613,30.47077,-97.806219,Cedar Park,TX,"Restaurant,Italian Restaurant,Pizza Place,Italian Restaurant and Pizza Place"
AVwcxjwNByjofQCxiDMX,1113 S Signal Butte Rd,85208,33.3951,-111.597641,Mesa,AZ,"Pizza,Restaurant,Pizza Place"
AVwc80j6kufWRAb50vda,406 Broad St,37402,35.051879,-85.310575,Chattanooga,TN,"Restaurant,Pizza Place,Pizza Place Downtown Chattanooga"
AVwcxeT5ByjofQCxiCJs,371 W Ferry St,14213,42.915339,-78.887454,Buffalo,NY,"Restaurant,Pizza Place"
AVwdXlYRByjofQCxoYvz,6151 FM 78,78218,29.477237,-98.368641,San Antonio,TX,"Pizza,Restaurant,Pizza Place,Pizza Place Sunrise,Restaurants,Italian Restaurants"
AVwc7-Tq_7pvs4fz0jYE,215 Glen Cove Rd,11514,40.747840999999994,-73.617626,Carle Place,NY,"Restaurant,Pizza Place"
AVzA1VVjLD2H7whiWFMI,6501 Kissena Blvd,11367,40.737123,-73.814621,Flushing,NY,"Restaurant,Pizza Place"
AVzA-CKCLD2H7whiWIFZ,1245 Chicago Ave,60202,42.040121,-87.680374,Evanston,IL,"Restaurant,Pizza Place"
AVwce-gIIN2L1WUflcXV,805 College Blvd,92057,33.24096,-117.292482,Oceanside,CA,"Restaurant,Pizza Place"
AVwdBrJ6kufWRAb51hy_,27015 Mcbean Pkwy,91355,34.422946,-118.564031,Valencia,CA,"Restaurant,Pizza Place,Pizza Place Valencia"
AVwcwSLZ_7pvs4fzym4d,3960 N Studebaker Rd,90808,33.829890999999996,-118.099479,Long Beach,CA,"Pizza,Restaurant,Italian,Pizza Place"
AVwdah7MkufWRAb55pyF,7828 Rea Rd,28277,35.06116152,-80.81696533,Charlotte,NC,Pizza Place
AVwc_ZoU_7pvs4fz1Gwq,3761 S Nova Rd,32129,29.131123,-81.00595581,Port Orange,FL,Pizza Place
AVwdrS3aByjofQCxreSs,485 Lorimer St,11211,40.711535,-73.949063,Brooklyn,NY,"Restaurant,Bar,Pizza Place"
AVwdvxpbByjofQCxsHdn,5908 Edinger Ave,92649,33.729939,-118.025043,Huntington Beach,CA,"Pizza,Restaurant,Pizza Place,Restaurants"
AVwcjc3zkufWRAb5wdCu,1710 W Main St,49006,42.294491,-85.609596,Kalamazoo,MI,"Restaurant,Pizza Place"
AVwdU28GIN2L1WUfuoVc,1224 Liberty Ave,11208,40.67906,-73.86384,Brooklyn,NY,"Restaurant,Pizza Place"
AVzoAZ3A3D1zeR_xCTx5,31089 Hayes Rd,48088,42.525104,-82.96906,Warren,MI,"Restaurant,Pizza Place"
AVwcj4JoIN2L1WUfmU0m,715 W Michigan Ave,48176,42.161734,-83.793651,Saline,MI,"Restaurant,Pizza Place"
AVwchIo1IN2L1WUflz7Y,2034 W Auburn Rd,48309,42.635011999999996,-83.171121,Rochester,MI,"Restaurant,Pizza Place Rochester,Pizza Place"
AVwcl6RuByjofQCxgAiF,14325 S La Grange Rd,60462,41.629927,-87.853794,Orland Park,IL,"Restaurant,Pizza Place"
AVzX50NC-gnIPe8DTLBW,1620 Deerfield Rd,60035,42.175677,-87.822513,Highland Park,IL,"Restaurant,Pizza Place"
AVwdX5GWkufWRAb55Or7,16563 W 151st St,66062,38.854495,-94.776892,Olathe,KS,"Restaurant,Pizza Place"
AVweQkYhIN2L1WUf3XZu,2820 Stelzer,43219,40.032841999999995,-82.909949,Columbus,OH,"Pizza Place Northeast Columbus,Restaurant,Pizza Place"
AVzA9insLD2H7whiWHph,5040 North Tarrant Pkwy,76244,32.893408,-97.274259,Keller,TX,"Restaurant,Pizza Place"
AVwcwfZoIN2L1WUfoj6p,3500 S Meridian,98373,47.157917,-122.293093,Puyallup,WA,"Restaurant,Pizza Place"
AVwdUz3wIN2L1WUfunxf,108 S Ranch House Rd,76008,32.733936,-97.633051,Aledo,TX,"Pizza,Restaurant,Pizza Place,Restaurants"
AVwck7aQkufWRAb5wtcZ,5201 S Broadway Ave,75703,32.295294,-95.30160699999999,Tyler,TX,"Restaurant,Pizza Place"
AVwcxVDV_7pvs4fzyyUx,2101 Fillmore St,94115,37.788934000000005,-122.433821,San Francisco,CA,"Restaurant,Pizza Place,Pizza Place Pacific Heights"
AVwdz21S_7pvs4fz9eDs,11978 US Route 19,15090,40.631425,-80.057823,Wexford,PA,"Restaurant,Italian Restaurant,Pizza Place,Italian Restaurant and Pizza Place"
AVweLkpCByjofQCxv-fe,288 Main St,94566,37.65845,-121.876751,Pleasanton,CA,"Pizza,Restaurant,Pizza Place,Restaurants"
AVzA2SBE-gnIPe8DSdVi,489 3rd Ave,10016,40.745149,-73.978522,New York,NY,"Pizza,Restaurant,Pizza Place"
AVwdl3ObByjofQCxqoL3,115 Hamilton Ave,94301,37.443118,-122.16253600000002,Palo Alto,CA,"Pizza,Restaurant,Pizza Place,Pizza Place University South,Restaurants"
AVzA1Vdq3D1zeR_xA_y_,9513 Northern Blvd,11372,40.756862,-73.873002,Jackson Heights,NY,"Restaurant,Pizza Place"
AVzBASWBFcQ3k02bBbXI,5900 N Port Washington Rd,53217,43.122832,-87.91336899999999,Milwaukee,WI,"Restaurant,Pizza Place"
AVwclIXJ_7pvs4fzwrVO,1048 Old Country Rd,11803,40.775967,-73.471761,Plainview,NY,"Restaurant,Pizza Place,Restaurants"
AVwci6uZ_7pvs4fzwSM-,25680 Highway 290,77429,29.975740000000002,-95.69769000000001,Cypress,TX,"Pizza,Restaurant,International restaurants,Pizza Place and Salad Place,Salad Place,Italian restaurants,Pizza Place,Restaurants"
AVwc2s8BByjofQCxi681,210 E 3rd St,90802,33.770329,-118.19072,Long Beach,CA,"Restaurant,Pizza Place"
AVwdFssA_7pvs4fz2JG1,8725 W Higgins Rd,60631,41.985371,-87.845028,Chicago,IL,"Restaurant,Pizza Place Northwest Side,Pizza Place"
AVwcw1yNByjofQCxh6ks,3311 Adams Ave,92116,32.763088,-117.12255,San Diego,CA,"Pizza,Restaurant,Vegetarian,Pizza Place,Vegan"
AVwdUOgq_7pvs4fz4ltZ,3880 Rib Mountain Dr,54401,44.921440000000004,-89.65228,Wausau,WI,"Restaurant,Pizza Place"
AVwePSEs_7pvs4fzBP-k,3842 Sunrise Hwy,11783,40.674464,-73.490065,Seaford,NY,"Restaurant,Pizza Place"
AVwcrUO3kufWRAb5x02j,1951 E Dublin Granville Rd,43229,40.086418,-82.966373,Columbus,OH,"Restaurant,Pizza Place"
AVzA0-IDFcQ3k02bBW3h,173 1st Ave,10003,40.729121,-73.984227,New York,NY,"Restaurant,Pizza Place"
AVwc0sg2kufWRAb5zZ0w,620 Easton Rd,18976,40.231531,-75.13809300000001,Warrington,PA,"Restaurant,Pizza Place"
AVwc2ynIByjofQCxi72P,750 Grand Ave,55105,44.939849,-93.131906,Saint Paul,MN,"Restaurant,Pizza Place"
AV0vdMS--gnIPe8DWIqe,1115 Astor Ave,10469,40.859736,-73.855758,Bronx,NY,"Pizza,Restaurant,Pizza Place"
AVwckODwkufWRAb5wl1a,15250 Dallas Pkwy,75254,32.956888,-96.820291,Dallas,TX,"Restaurant,Pizza Restaurants,Pizza Place,Restaurants"
AVwc_tnSByjofQCxkatT,2525 Arapahoe Ave,80302,40.016945,-105.261669,Boulder,CO,"Pizza,Restaurant,Pizza Place"
AVwch9X7_7pvs4fzwHHC,2343 W Chicago Ave,60622,41.895718,-87.68605600000001,Chicago,IL,"Pizza,Restaurant,Pizza Place,Restaurants"
AVzA3SqRFcQ3k02bBYgm,852 8th Ave,10019,40.763039,-73.985387,New York,NY,"Pizza,Restaurant,Italian,Pizza Place"
AVweXaqUIN2L1WUf4SNY,36 S Market St,21701,39.413078000000006,-77.41091999999999,Frederick,MD,"Pizza,Restaurant,Pizza Place,Restaurants"
AVweYnMT_7pvs4fzCgVS,6112 Franconia Rd,22310,38.782272999999996,-77.14744300000001,Alexandria,VA,"Pizza,Restaurant,Greek Restaurants,Pizza Place,Restaurants"
AVweIoZ2kufWRAb5ATPW,950 Mamaroneck Ave,10543,40.9602,-73.73695,Mamaroneck,NY,"Restaurant,Pizza Place"
AVyisukDYuCoGd6wM3S7,4712 River City Dr Ste 105,32246,30.257298,-81.525646,Jacksonville,FL,"Restaurant,Pizza Place"
AVweV9OakufWRAb5CGMC,102 Berry St,11211,40.719044,-73.95859499999999,Brooklyn,NY,"Italian Restaurant,Restaurant,Italian Restaurant and Pizza Place Williamsburg,Pizza Place,Italian Restaurant and Pizza Place"
AVwdd-lekufWRAb56Nh3,8127 Mesa Dr,78759,30.372586,-97.75576600000001,Austin,TX,"Pizza,Restaurant,Austin Restaurants,Pizza Place"
AVzBCS_v-gnIPe8DSiH2,437 Washington Ave,33139,25.774303,-80.13401,Miami Beach,FL,"Pizza,Italian Restaurant,Restaurant,Italian,Salad Place,Pizza Place,Salad"
AVwctW1U_7pvs4fzyHY6,550 Wells Rd,32073,30.185377000000003,-81.705359,Orange Park,FL,"Restaurant,Pizza Place"
AVyoGfEJl8hL2jjQyUJO,7929 Emerson Ave,90045,33.968887,-118.406319,Los Angeles,CA,"Pizza,Italian Restaurant,Restaurant,Pizza Place"
AVwcssDFIN2L1WUfn5-s,900 Park Ave SW,87102,35.085312,-106.65754799999999,Albuquerque,NM,"Pizza,Restaurant,Caterers,Pizza Place,Restaurants"
AVweUbeUIN2L1WUf34h0,600 S Airport Rd,80503,40.151189,-105.15388300000001,Longmont,CO,"Restaurant,Pizza Place"
AVwdFXsJIN2L1WUfsCxN,3903 14th Ave,61201,41.497507,-90.546189,Rock Island,IL,"Restaurant,Pizza Place"
AVwdHX5IkufWRAb52dEk,2266 Warrensville Center Rd,44118,41.498216,-81.53678599999999,Cleveland,OH,"Restaurant,Pizza Place"
AVwd6wAj_7pvs4fz-abC,7000 Westwind Dr,79912,31.852781,-106.541195,El Paso,TX,"Pizza,Restaurant,Pizza Place and Sandwich Place,wich Place,Take Out Restaurants,Pizza Place,Restaurants"
AVweJgKKIN2L1WUf2aTU,421 Water St,54703,44.80206,-91.508792,Eau Claire,WI,"Restaurant,Pizza Place"
AV26De2KRxPSIh2Rdxb7,43 N Village Ave,11570,40.657928999999996,-73.64750699999999,Rockville Centre,NY,"Restaurant,Pizza Place"
AVwd-P8h_7pvs4fz-5rN,1874 Whittaker Rd,48197,42.213952,-83.620798,Ypsilanti,MI,"Restaurant,Pizza Place"
AVweTM8B_7pvs4fzByGA,577 Lancaster Ave,19355,40.035917,-75.572552,Malvern,PA,"Restaurant,Pizza Place"
AVz7QjKa-gnIPe8DUpQV,5950 Richmond Hwy,22303,38.787815,-77.067047,Alexandria,VA,"Restaurant,Pizza Place"
AVwc-UVmkufWRAb50-Zk,4152 E Blue Grass Rd,48858,43.57533,-84.762901,Mount Pleasant,MI,"Restaurant,Pizza Place"
AVzYJSI8FcQ3k02bCE2X,1799 Briarcliff Rd NE,30306,33.804337,-84.337758,Atlanta,GA,"Restaurant,Pizza Place,Arcade"
AVzGBp8ULD2H7whiWYob,777 N Ashley Dr Ste C,33602,27.9498,-82.46022099999999,Tampa,FL,"Restaurant,Pizza Place"
AVwekf7rkufWRAb5ELbx,1955 Central Park Ave,10710,40.965379999999996,-73.838835,Yonkers,NY,"Restaurant,Pizza Place,Pizza Place Northeast Yonkers"
AWEKkiIp3-Khe5l_et8f,2019 Westchester Avenue,10462,40.833864,-73.857013,Bronx,NY,"Restaurant,Pizza Place"
AVwdXEsX_7pvs4fz5Eu3,4470 Lafayette St,32446,30.774015999999996,-85.223161,Marianna,FL,"Restaurant,Pizza Place,Restaurants"
AVzTb4wxFcQ3k02bBzzJ,3106 42nd St,11103,40.760503,-73.915634,Astoria,NY,"Pizza,Restaurant,Pizza Place"
AVwdldmn_7pvs4fz7VVh,2042 Ford Pkwy,55116,44.917971,-93.186658,Saint Paul,MN,"Restaurant,Pizza Place"
AVzA8-eY-gnIPe8DSegR,7924 Highway 7,55426,44.936969,-93.37993900000001,Minneapolis,MN,"Restaurant,Pizza Place"
AVyirz3zgXLl9CNj_AEI,28 S Saint Clair St,43604,41.646752,-83.538866,Toledo,OH,"Restaurant,Pizza Place"
AVwc8PPvIN2L1WUfqkLk,2117 Cortelyou Rd,11226,40.644086,-73.958112,Brooklyn,NY,"Restaurant,Pizza Place,Restaurants"
AVwdbXSNIN2L1WUfvtdy,1204 Flatbush Ave,11226,40.641,-73.95613,Brooklyn,NY,"Pizza,Restaurant,Pizza Place,Pizza Place Flatbush"
AVwdhIgPIN2L1WUfwmVD,6440 N MacArthur Blvd,75039,32.896774,-96.958238,Irving,TX,"Restaurant,Pizza Place"
AV0Hb5dYFcQ3k02bDmz-,1400 N Wayne St,46703,41.65126,-84.999515,Angola,IN,"Restaurant,Pizza Place"
AV1glSYg3-Khe5l_NctH,9 Cooper St,11702,40.697452,-73.319066,Babylon,NY,"Pizza,Restaurant,Food Delivery,Pizza Place,Restaurants"
AVwcriaKByjofQCxhAJs,88 Henry St,12866,43.08242,-73.782332,Saratoga Springs,NY,"Restaurant,Pizza Place"
AVwdRGuzIN2L1WUfuA0O,5099 Mission St,94112,37.717244,-122.44041499999999,San Francisco,CA,"Restaurant,Pizza Place"
AVwdBYXQkufWRAb51evl,711 Pleasant Grove Blvd,95678,38.791198,-121.27821000000002,Roseville,CA,"Pizza,Restaurant,Pizza Place,Restaurants,Italian Restaurants"
AVzA88puFcQ3k02bBZG3,1151 Newport Center Drive,92660,33.608641,-117.87811299999998,Newport Beach,CA,"Restaurant,Pizza Place"
AVwed2-BByjofQCxyeMI,134 Prarie Park,98597,46.939133,-122.599708,Yelm,WA,"Italian Restaurant,Restaurant,Pizza Place,Italian Restaurant and Pizza Place"
AVzA_teJFcQ3k02bBbE1,415 17th Ave N,55343,44.932034,-93.421134,Hopkins,MN,"Restaurant,Pizza Place,Restaurants"
AVwdkMUrByjofQCxqXeP,13 King St,10514,41.15918,-73.77237,Chappaqua,NY,"Pizza,Restaurant,Pizza Place,Restaurants"
AVwd9sBN_7pvs4fz-0gN,219 W Maple Ave,25840,38.05101,-81.105851,Fayetteville,WV,"Brewery,Restaurant,Pizza Place and Brewery,Pizza Place"
AV1teeDs3-Khe5l_OeMN,538 Warren St,46750,40.88268,-85.49424,Huntington,IN,"Pizza,Restaurant,Pizza Place,Restaurants"
AVwd4_sgkufWRAb5-Jja,4166 Macarthur Blvd,94619,37.788708,-122.195776,Oakland,CA,"Restaurant,Pizza Place"
AVwcorg7kufWRAb5xX0s,229 Prospect Park W,11215,40.659940999999996,-73.980558,Brooklyn,NY,"Restaurant,Pizza Place"
AWEKcl99IxWefVJwxA96,2600 Ardmore Blvd,15221,40.4108,-79.8442,Pittsburgh,PA,"Restaurant,Pizza Place"
AVzBD8xr3D1zeR_xBGID,5230 Baymeadows Rd,32217,30.220121999999996,-81.59192,Jacksonville,FL,"Restaurant,Pizza Place"
AVwctZFRkufWRAb5yLnv,3675 J St,95816,38.570609000000005,-121.457053,Sacramento,CA,"Restaurant,Pizza Place,Restaurants"
AVzBE-caFcQ3k02bBeC7,6133 South Alameda St,78412,27.718476000000003,-97.334321,Corpus Christi,TX,"Restaurant,Pizza Place"
AVwc-NM9IN2L1WUfq4Ng,140 Crescent Dr,94523,37.9445,-122.06176799999999,Pleasant Hill,CA,"Restaurant,Pizza Place"
AVwchGopkufWRAb5wBS2,8485 Market St,44512,40.99221,-80.662701,Youngstown,OH,"Restaurant,Pizza Place"
AVwc5Cp3IN2L1WUfqBWC,4085 Atlantic Ave,90807,33.831455,-118.185441,Long Beach,CA,"Pizza Place Bixby Knolls,Restaurant,Pizza Place"
AVwdYrcW_7pvs4fz5Vdh,11319 W Bluemound Rd,53226,43.035422,-88.05455,Milwaukee,WI,"Restaurant,Pizza Place"
AVwcwwIhIN2L1WUfomuC,1075 Summit Ave,53066,43.095313,-88.480235,Oconomowoc,WI,"Restaurant,Pizza Place"
AVzBAS3bFcQ3k02bBbXR,4849 S Howell Ave,53207,42.955681,-87.90979200000001,Milwaukee,WI,"Restaurant,Pizza Place"
AVwd3xG5IN2L1WUfz8XL,2500 N Mayfair Rd,53226,43.063947999999996,-88.04333000000001,Milwaukee,WI,"Restaurant,Pizza Place"
AWEXVooZa4HuVbedM9la,2237 E Colorado Blvd,91107,34.146443,-118.10440200000001,Pasadena,CA,"Restaurant,Pizza Place"
AVzBCR9g3D1zeR_xBFXh,1763 SW 3rd Ave,33129,25.760621,-80.200409,Miami,FL,"Pizza,Restaurant,Pizza Place"
AVwcoMAbByjofQCxgaGN,22 S Main St,18901,40.309377000000005,-75.130572,Doylestown,PA,"Restaurant,Pizza Place"
AVyis5rpYuCoGd6wM3Vr,849 Manhattan Ave,11222,40.729058,-73.95384200000001,Brooklyn,NY,"Restaurant,Pizza Place"
AVwcplKOByjofQCxgqIB,3400 E Hebron Pkwy,75010,33.025489,-96.842623,Carrollton,TX,"Restaurant,Pizza Place"
AVwc5r9BkufWRAb50O-S,1126 Main St,45202,39.108612,-84.511246,Cincinnati,OH,"Restaurant,Bar,Pizza Place and Bar,Pizza Place"
AVwdoy1G_7pvs4fz72Yi,3131 N Main St,29621,34.538975,-82.66776,Anderson,SC,"Restaurant,Pizza Place"
AVwc3m8aByjofQCxjEyW,16535 Southwest Fwy,77479,29.592371999999997,-95.62894399999999,Sugar Land,TX,"Restaurant,Pizza Place"
AVwdz8eQByjofQCxsuQ3,1419 W Fullerton ave,60614,41.925129999999996,-87.664113,Chicago,IL,"Restaurant,Pizza Place"
AVwdPwtMIN2L1WUftxli,1308 Buffalo Rd,14624,43.150276,-77.685872,Rochester,NY,"Restaurant,Italian Restaurant,Pizza Place,Italian Restaurant and Pizza Place"
AVwc-xCd_7pvs4fz0_7W,319 Granby St,23510,36.8505,-76.29019,Norfolk,VA,"Restaurant,Pizza Place"
AVwcw6znIN2L1WUfoon6,2625 Colby Ave,98201,47.982433,-122.20813000000001,Everett,WA,"Restaurant,Pizza Place"
AVzA1eJAFcQ3k02bBXX0,10622 S River Front Pkwy,84095,40.558405,-111.910233,South Jordan,UT,"Restaurant,Pizza Place"
AVwdLuIgByjofQCxmYAJ,1228 12th Ave,53024,43.319532,-87.95174899999999,Grafton,WI,"Restaurant,Pizza Place"
AVzA9kmnLD2H7whiWHrL,300 Liberty Ave,15222,40.440551,-80.006183,Pittsburgh,PA,"Restaurant,Pizza Place"
AVwd5mHnIN2L1WUf0MtJ,6149 N Scottsdale Rd,85250,33.526604,-111.924627,Scottsdale,AZ,"Pizza,Restaurant,Italian,Pizza Place"
AVwdkMGPIN2L1WUfxEei,2518 Durant Ave,94704,37.867867,-122.258576,Berkeley,CA,"Restaurant,Pizza Place"
AVwd9ddA_7pvs4fz-yUv,40 Catherwood Rd,14850,42.481792999999996,-76.49108100000001,Ithaca,NY,"Restaurant,Pizza Place"
AVwdSpZCIN2L1WUfuQ4J,2080 Western Ave,12084,42.697759999999995,-73.892398,Guilderland,NY,"Restaurant,Pizza Place"
AVwc3zp4_7pvs4fzz3Es,3412 S Western Ave,57105,43.514723,-96.751075,Sioux Falls,SD,"Pizza,Restaurant,Pizza Place,Restaurants"
AVweWsbqIN2L1WUf4L6R,352 Malcolm X Blvd,11233,40.680796,-73.928618,Brooklyn,NY,"Restaurant,Pizza Place and Caf Bedford-Stuyvesant,Caf,Pizza Place"
AVwcvjJ3kufWRAb5yiqH,210 Garfield St S,98444,47.145961,-122.434992,Tacoma,WA,"Restaurant,Pizza Place"
AVwdAZUm_7pvs4fz1RXk,4475 Roswell Rd,30062,33.987059,-84.421051,Marietta,GA,"Restaurant,Pizza Place"
AVwce3pa_7pvs4fzviGy,2600 W 7th St,76107,32.752089,-97.35329300000001,Fort Worth,TX,"Pizza,Restaurant,Pizza Place,Restaurants"
AVzA0yVo-gnIPe8DSb4U,7909 Main St,11367,40.718536,-73.817258,Flushing,NY,"Restaurant,Pizza Place"
AVzBAGEb-gnIPe8DSgi0,3137 Erie Blvd,13214,43.049684,-76.071504,Syracuse,NY,"Restaurant,Pizza Place"
AVwcqE7dkufWRAb5xmVk,1924 W Chicago Ave,60622,41.896209999999996,-87.675651,Chicago,IL,"Pizza,Restaurant,American,Pizza Place,Pizza Place East Ukrainian Village"
AVwdYVQJ_7pvs4fz5RsQ,730 Kains Ave,94066,37.627263,-122.416545,San Bruno,CA,"Restaurant,Pizza Place"
AVzA95LR3D1zeR_xBCii,5440 Centre Ave,15232,40.45649,-79.936661,Pittsburgh,PA,"Restaurant,Pizza Place"
AVzA12tZLD2H7whiWFqP,531 Malcolm X Blvd,10037,40.815278,-73.94031600000001,New York,NY,"Restaurant,Pizza Place"
AVwc-CSo_7pvs4fz04Zz,1154 W Fulton Mkt,60607,41.886666999999996,-87.65655799999999,Chicago,IL,"Restaurant,Pizza Place"
AVwcgzwBByjofQCxfDRm,1202 Kingwood Dr,77339,30.049313,-95.23879699999999,Kingwood,TX,"Restaurant,Pizza Place"
AVwcsiHEkufWRAb5yCE4,5135 N Dysart Rd,85340,33.510717,-112.340841,Litchfield Park,AZ,"Pizza,Restaurant,Caterers,Pizza Place,Restaurants"
AVzA1_W5LD2H7whiWFxc,591 Lexington Ave,10022,40.757661999999996,-73.971498,New York,NY,"Pizza,Restaurant,Salad Place,wich Place,Pizza Place"
AV1TsqdfLD2H7whiaO9y,627 Hoffner Ave,32809,28.475377,-81.369132,Orlando,FL,"Restaurant,Pizza Place"
AVwcplvGByjofQCxgqOR,3252 Cahuenga Blvd W,90068,34.129717,-118.34903,Los Angeles,CA,"Restaurant,Pizza Place and Sandwich Place,wich Place,Pizza Place"
AVwdTD0pkufWRAb54bcv,911 Market Place Blvd,30041,34.181020000000004,-84.13258499999999,Cumming,GA,"Restaurant,Pizza Place"
AV4u1hZrIxWefVJwkWrX,319 East St,17815,41.003440999999995,-76.451352,Bloomsburg,PA,"Restaurant,Pizza Place"
AV4rI8r83-Khe5l_R6cS,100 Highland Ave,18411,41.495688,-75.704594,Clarks Summit,PA,"Restaurant,Pizza Place"
AVzA3fsC3D1zeR_xBBIc,17 Cleveland Pl,10012,40.721542,-73.997241,New York,NY,"Restaurant,Pizza Place"
AV4rI9q5a4HuVbed_jrK,3352 Robinhood Road,27106,36.115951,-80.31268399999999,Winston-Salem,NC,"Restaurant,Pizza Place"
AWA9ucTmIxWefVJwurdm,8620 Fredericksburg Rd,78240,29.520896,-98.573041,San Antonio,TX,"Pizza,Restaurant,Pizza Place,Restaurants"
AV1yt_VZIxWefVJwhQmG,440 E 14th St,10009,40.73062,-73.980941,New York,NY,"Restaurant,Pizza Place"
AVzA07-QLD2H7whiWEwL,167 Orchard St,10002,40.721299,-73.988744,New York,NY,"Restaurant,Pizza Place"
AV1tfrn4IxWefVJwg35O,114 Glover Dr,45154,39.044053999999996,-83.9213,Mount Orab,OH,"Restaurant,Pizza Place"
AV0Y3_Hd-gnIPe8DVVPo,5806 Cheviot Rd,45247,39.199090000000005,-84.600951,Cincinnati,OH,"Restaurant,Pizza Place"
AV0Hj9FjFcQ3k02bDm89,11711 Princeton Pike,45246,39.28865,-84.46943,Cincinnati,OH,"Restaurant,Pizza Place"
AVwc2KQa_7pvs4fzzk_s,21 Kugler Rd,19468,40.237577,-75.53564399999999,Royersford,PA,"Restaurant,Pizza Place"
AVweA_FMByjofQCxuhVP,15817 Bernardo Center Dr,92127,33.005111,-117.091631,San Diego,CA,"Restaurant,Pizza Restaurants,Pizza Place"
AVwdhpg1ByjofQCxp-lX,1707 Sardis Rd N,28270,35.139486,-80.73718000000001,Charlotte,NC,"Restaurant,Pizza Place"
AVwdn_xGkufWRAb57uSz,6800 Eastman Ave,48642,43.658034,-84.24715400000001,Midland,MI,"Restaurant,Pizza Place,Restaurants"
AWEKTpkka4HuVbedMBtx,150 Central Mall,67401,38.802871,-97.60974499999999,Salina,KS,"Restaurant,Pizza Place"
AVwdUnIK_7pvs4fz4p8b,2754 E Mckellips Rd,85213,33.452128,-111.771201,Mesa,AZ,"Restaurant,Pizza Place"
AVweZG3NkufWRAb5Cgot,191 Outer Loop,40214,38.126531,-85.777837,Louisville,KY,"Restaurant,Pizza Place"
AVweURCU_7pvs4fzB7G2,7201 Pendleton Pike,46226,39.829203,-86.041967,Indianapolis,IN,"Restaurant,Pizza Place"
AWEKUHOmRxPSIh2RrNHR,9701 Ford Ave,31324,31.951347,-81.313917,Richmond Hill,GA,"Restaurant,Pizza Place"
AVzA1st3-gnIPe8DSc3a,11 Park Pl,10007,40.712779,-74.008197,New York,NY,"Pizza,Restaurant,Italian,Pizza Place"
AVwd--SXkufWRAb5--lR,1901 Junipero Serra Blvd,94014,37.701907,-122.47053700000001,Daly City,CA,"Pizza,Restaurant,American,Fast Food,Pizza Place"
AVwdaCSI_7pvs4fz5j3D,5228 S Dale Mabry Hwy,33611,27.888697999999998,-82.506289,Tampa,FL,"Pizza,Restaurant,Pizza Place,Pizza Place Southwest Tampa,Restaurants"
AVwco6DL_7pvs4fzxWaP,19065 Beach Blvd,92648,33.68544,-117.988848,Huntington Beach,CA,"Restaurant,Pizza Place"
AVwdBhNs_7pvs4fz1dMZ,22311 Brookhurst St,92646,33.641884999999995,-117.957994,Huntington Beach,CA,"Restaurant,Pizza Place"
AVzA3YYlFcQ3k02bBYj6,181 Church St,10007,40.715619000000004,-74.007053,New York,NY,"Pizza,Restaurant,Fast Food,Pizza Place"
AVzBEWzE-gnIPe8DSjDM,9450 S Northshore Dr,37922,35.86503,-84.06183,Knoxville,TN,"Restaurant,Pizza Place"
AWHoYuHn3-Khe5l_hJg_,66 Church St,17236,39.830639,-77.900885,Mercersburg,PA,"Restaurant,Pizza Place"
AVweiM1yByjofQCxzH_l,119 1st Ave W,61264,41.453409,-90.56795100000001,Milan,IL,"Restaurant,Pizza Place"
AVwcjkUJIN2L1WUfmRP3,19998 Homestead Rd,95014,37.337431,-122.022773,Cupertino,CA,"Restaurant,Pizza Place,Sandwich Place"
AVwdNSIUByjofQCxmpB8,6255 Zebulon Rd,31210,32.879953,-83.76711999999999,Macon,GA,"Pizza,Restaurant,Pizza Place"
AV3SAJi1a4HuVbed-5yU,571 Mid Rivers Mall Dr,63376,38.78674,-90.628281,Saint Peters,MO,"Restaurant,Pizza Place"
AV3R7RDs3-Khe5l_RQPv,51100 D W Seaton Dr,48047,42.676404999999995,-82.774628,New Baltimore,MI,"Restaurant,Pizza Place"
AVz-I7Od3D1zeR_xDJYa,32622 7 Mile Rd,48152,42.42629,-83.369035,Livonia,MI,"Restaurant,Pizza Place"
AVwc32AVByjofQCxjHVj,37525 Harper Ave,48036,42.572904,-82.87146800000001,Clinton Township,MI,"Restaurant,Pizza Place"
AVzX81oSFcQ3k02bCExm,1115 S Bethlehem Pike,19002,40.15753,-75.21401,Ambler,PA,"Restaurant,Pizza Place"
AVwdDAvoByjofQCxk8xS,305 South St,19147,39.941619,-75.14774399999999,Philadelphia,PA,"Pizza,Restaurant,Italian,Pizza Place"
AVwcv3N1ByjofQCxhvl_,446 N Campbell Ave,85719,32.227154,-110.94377800000001,Tucson,AZ,"Restaurant,Pizza Place"
AVwdCogIByjofQCxk4yW,140 7th Ave,11215,40.672844,-73.976813,Brooklyn,NY,"Restaurant,Pizza Place"
AVwcuJEE_7pvs4fzyPc_,4268 Oldfield Crossing Dr,32223,30.165570000000002,-81.60236,Jacksonville,FL,"Pizza,Pizza Place Loretto,Restaurant,Karaoke,Pizza Place,Restaurants"
AVwdE2AeIN2L1WUfr913,543 E Eighth St,49686,44.759399,-85.612496,Traverse City,MI,"Restaurant,Pizza Place"
AVwdvPKDIN2L1WUfyvqd,7019 N 19th Ave,85021,33.539646999999995,-112.099597,Phoenix,AZ,"Pizza,Restaurant,Pizza Place,Restaurants,Italian Restaurants"
AVwdMlkBkufWRAb53UiP,5549 County Farm Rd,60133,41.967381,-88.151613,Hanover Park,IL,"Pizza,Restaurant,Pizza Place,Food & Entertainment,Restaurants"
AV1tfTqLa4HuVbed8MBD,1165 W Spring St,60177,41.996173999999996,-88.31400500000001,South Elgin,IL,"Pizza,Restaurant,Pizza Place,Restaurants"
AVwc-HGcIN2L1WUfq3Qg,2809 Preston Rd,75034,33.100429999999996,-96.80569,Frisco,TX,"Restaurant,pizza place"
AVwdxa5d_7pvs4fz9Igb,100 Main St,34695,27.990624,-82.688647,Safety Harbor,FL,"Restaurant,Pizza Place"
AV1TsjOrLD2H7whiaOoF,11551 University Blvd,32817,28.597720000000002,-81.21959,Orlando,FL,"Pizza,Restaurant,Pizza Place"
AVweZJHdkufWRAb5Cg_O,4452 Kenny Rd,43220,40.049343,-83.049356,Columbus,OH,"Restaurant,Pizza Place"
AVwc2SgF_7pvs4fzzmV0,1931 W Badillo St,91790,34.087565999999995,-117.944783,West Covina,CA,Pizza Place
AVwc8fU-kufWRAb50sJQ,4100 Redwood Rd,94619,37.797881,-122.18237099999999,Oakland,CA,"Pizza,Restaurant,Pizza Place"
AVwdB2rUkufWRAb51jn0,22435 Ventura Blvd,91364,34.168473,-118.61591899999999,Woodland Hills,CA,"Pizza,Restaurant,Pizza Place"
AVwclvCR_7pvs4fzwyPc,3515 Lindell Blvd,63103,38.636886,-90.230492,Saint Louis,MO,"Italian Restaurant,Pizza Place and Italian Restaurant,Pizza Place and Italian Restaurant Grand Center,Pizza Place"
AVwd1VbeIN2L1WUfzn19,5346 Prosperity Church Rd,28269,35.367018,-80.786328,Charlotte,NC,Pizza Place
AVwcpoc8kufWRAb5xiAw,3928 Wadsworth Blvd,80033,39.772138,-105.08021699999999,Wheat Ridge,CO,"Pizza,Restaurant,Pizza Place"
AVwc6LPkkufWRAb50T-S,11705 SW Pacific Hwy,97223,45.437473,-122.757774,Portland,OR,"Restaurant,Pizza Place"
AVwcqsLUkufWRAb5xtyO,118 S Broadway St,72761,36.184337,-94.540776,Siloam Springs,AR,Pizza Place
AVwd6HnkByjofQCxtj4j,1600 Central Ave,28205,35.22007,-80.811993,Charlotte,NC,"Restaurant,Pizza Place"
AVwdND42_7pvs4fz3XnS,1 Jericho Tpke,11753,40.776024,-73.567414,Jericho,NY,"Italian Restaurant,Pizza Place"
AVwc4yqiIN2L1WUfp-Z6,320 Water St,54703,44.802303,-91.506636,Eau Claire,WI,Pizza Place
AVwcjadL_7pvs4fzwX65,2625 Enterprise Rd,32763,28.914771000000002,-81.291848,Orange City,FL,Pizza Place
AVwcqf1uByjofQCxg0Ap,33521 7 Mile Rd,48152,42.425978,-83.37779,Livonia,MI,"Restaurant,Pizza Place"
AVweEFRx_7pvs4fz_uFo,7488 Mentor Ave,44060,41.654779,-81.373598,Mentor,OH,"Restaurant,Pizza Place"
AVwdgjfW_7pvs4fz6lT1,438 S York Rd,60106,41.946328,-87.940039,Bensenville,IL,Pizza Place
AVwc41up_7pvs4fz0B7X,4938 S Staples St,78411,27.71003,-97.367294,Corpus Christi,TX,"American Restaurant,Pizza Place"
AVwcfE_E_7pvs4fzvk2-,19741 S Main St,28031,35.47867,-80.856549,Cornelius,NC,"Pizza Place,Sandwich Place"
AVweSf4QByjofQCxw6bY,6694 N Northwest Hwy,60631,42.002694,-87.816091,Chicago,IL,Pizza Place
AVwdwDPHByjofQCxsKP2,2030 New Bern Ave,27610,35.778771,-78.606886,Raleigh,NC,Pizza Place
AVwch14I_7pvs4fzwFn4,2129 Knapp St,11229,40.599942,-73.93383299999999,Brooklyn,NY,"Pizza Place Gerritsen Beach,Pizza Place"
AVwd4tuzByjofQCxtXEj,4619 N University Dr,33067,26.287732000000002,-80.248144,Pompano Beach,FL,"Pizza,Pizza Place,Restaurants,Italian Restaurants"
AVwdRv4hkufWRAb54Naf,420 Madison Ave,12210,42.652341,-73.767453,Albany,NY,Pizza Place
AVwce7mtIN2L1WUflbxC,314 E Army Trail Rd,60139,41.936861,-88.075624,Glendale Heights,IL,Pizza Place
AVzA0x813D1zeR_xA_JE,15525 Los Gatos Blvd Ste D,95032,37.243443,-121.96068600000001,Los Gatos,CA,"Restaurant,Pizza Place"
AVwd-PvfByjofQCxuJU4,2420 Arapahoe Ave,80302,40.014555,-105.26271399999999,Boulder,CO,"Restaurant,Pizza Place"
AV1tfrRoRxPSIh2RbTes,891 W Galbraith Rd,45231,39.215063,-84.517515,Cincinnati,OH,"Restaurant,Pizza Place"
AV1tfrRORxPSIh2RbTep,2717 Vine St,45219,39.131001,-84.50975799999999,Cincinnati,OH,"Restaurant,Pizza Place"
AV0Y37eU-gnIPe8DVVO2,3780 BachBuxton Rd,45102,39.051409,-84.24594,Amelia,OH,"Restaurant,Pizza Place"
AVwcm1NskufWRAb5xDgU,3174 NW Federal Hwy,34957,27.242253,-80.271337,Jensen Beach,FL,"Restaurant,Pizza Place"
AVzBCDWr-gnIPe8DSh9Y,1700 W New Haven Ave,32904,28.079061,-80.649288,Melbourne,FL,"Restaurant,Pizza Place"
AVwdCqqvkufWRAb51sN2,248 Towne Center Cir,32771,28.806028,-81.33977900000001,Sanford,FL,"Restaurant,Pizza Place"
AVwcjZ9w_7pvs4fzwXzx,5210 Northland Dr NE,49525,43.057930999999996,-85.579803,Grand Rapids,MI,"Restaurant,Pizza Place"
AVwci5LLByjofQCxfcI1,320 Town Center Ave,30024,34.055667,-84.063046,Suwanee,GA,"Restaurant,Pizza Place"
AVweX_TwkufWRAb5CXOs,51170 Gratiot Ave,48051,42.676756,-82.831551,New Baltimore,MI,"Pizza,Restaurant,American restaurants,Pizza Place,Restaurants"
AVwcuEAkIN2L1WUfoIw6,2900 N Mesa St,79902,31.779075,-106.504225,El Paso,TX,"Pizza,Restaurant,Pizza Place,Restaurants"
AVwdBgWPkufWRAb51gIL,9747 E 21st St N,67206,37.721947,-97.223907,Wichita,KS,"Restaurant,Pizza Place"
AWBsuBUuRxPSIh2RpZ-P,6605 E Mill Plain Blvd,98661,45.627148999999996,-122.60366200000001,Vancouver,WA,"Restaurant,Pizza Place"
AVwdMPtvkufWRAb53Qq4,8611 NE Ward Rd,98682,45.68521,-122.50558799999999,Vancouver,WA,"Restaurant,Pizza Place"
AVwdpZo7ByjofQCxrLJS,3415 SE 192nd Ave,98683,45.596329,-122.47797,Vancouver,WA,"Restaurant,Pizza Place"
AV6eY3qS3-Khe5l_X0cq,2300 Bernadette Dr,65203,38.965843,-92.37435,Columbia,MO,"Restaurant,Pizza Place"
AWEKTpVjIxWefVJww0Iq,118 Service Dr,39042,32.283241,-90.026572,Brandon,MS,"Restaurant,Pizza Place"
AVwd5HqnByjofQCxta7x,7044 Emblem Dr,46237,39.665477,-86.081345,Indianapolis,IN,"Restaurant,Pizza Place,Restaurants"
AVwdPBf5kufWRAb53ulU,6607 S Semoran Blvd,32822,28.467784,-81.309804,Orlando,FL,"Restaurant,Pizza Place"
AVwdr4F4ByjofQCxrj6x,2905 S Walton Blvd,72712,36.341499,-94.209849,Bentonville,AR,"Restaurant,Pizza Place"
AVweFWZb_7pvs4fz_4zT,3157 Sugarloaf Pkwy,30045,33.921219,-84.010071,Lawrenceville,GA,"Restaurant,Bar,Pizza Place"
AVwdRkzC_7pvs4fz4Jtp,7119 E Shea Blvd,85254,33.582082,-111.92745,Scottsdale,AZ,"Restaurant,Pizza Place"
AVweh3T9IN2L1WUf5yjH,85 7th Ave,11217,40.67467,-73.975199,Brooklyn,NY,"Pizza,Restaurant,Italian,Pizza Place North Slope,Pizza Place"
AV1ZOwG_FcQ3k02bFsHa,650 W Maple St,60451,41.518184000000005,-87.981841,New Lenox,IL,"Restaurant,Pizza Place"
AVzc_1iX-gnIPe8DTbCN,404 E Central Blvd Ste 102,32801,28.542101000000002,-81.372528,Orlando,FL,"Restaurant,Pizza Place"
AV1tfg-3IxWefVJwg2y1,170 W Washington St,60602,41.883433000000004,-87.633228,Chicago,IL,"Restaurant,Pizza Place"
AVwdeDnFByjofQCxpbzs,2635 E 62nd St,46220,39.867944,-86.118937,Indianapolis,IN,"Pizza,Restaurant,Italian Restaurant,Pizza Place,Restaurants"
AVwc3M_dIN2L1WUfpthC,18944 Brookhurst St,92708,33.687492999999996,-117.95380800000001,Fountain Valley,CA,"Pizza,Restaurant,Italian,Pizza Place,Restaurants"
AWEKT4DT3-Khe5l_ebt8,835 West State Street,45067,39.480325,-84.47224,Trenton,OH,"Restaurant,Pizza Place"
AWEKjYl6RxPSIh2RrdA_,6782 Corwin Avenue,45068,39.522760999999996,-84.065914,Waynesville,OH,"Restaurant,Pizza Place"
AWEKkatba4HuVbedMUGD,3972 Red Bank Road,45227,39.145938,-84.403987,Cincinnati,OH,"Restaurant,Pizza Place"
AVzoImcY-gnIPe8DT9Wi,19645 Pilot Knob,55024,44.666308,-93.17813000000001,Farmington,MN,"Restaurant,Pizza Place"
AWEKjoYvRxPSIh2Rrd4I,1387 Lee Street,60018,42.027936,-87.893624,Des Plaines,IL,"Restaurant,Pizza Place"
AVwds1T9IN2L1WUfyZ4Z,4233 E Lancaster,76103,32.741273,-97.260258,Fort Worth,TX,"Restaurant,Pizza Place"
AWEH746LRxPSIh2Rq3yT,1698 Pass Rd,39531,30.403128000000002,-88.938323,Biloxi,MS,"Restaurant,Pizza Place"
AVwchSRr_7pvs4fzv-gF,6928 E Broad St,43213,39.98267,-82.817584,Columbus,OH,"Restaurant,Pizza Place"
AVweNUVxkufWRAb5A76K,5057 E McKellips Rd,85215,33.451853,-111.72166499999999,Mesa,AZ,"Restaurant,Pizza Place"
AWEKZQYv3-Khe5l_ekMu,215 Main Street,46706,41.366126,-85.05581,Auburn,IN,"Restaurant,Pizza Place"
AVwdr_Tt_7pvs4fz8Wip,70 N Vail Ave,60005,42.083411,-87.984153,Arlington Heights,IL,"Restaurant,Pizza Place"
AVwd25zP_7pvs4fz94Yr,2401 15th St,80202,39.756755,-105.00965900000001,Denver,CO,"Restaurant,Pizza Place,Pizza Place Highland"
AVzA2N-aFcQ3k02bBYBJ,26111 Bouquet Canyon Rd,91350,34.41796,-118.54186000000001,Santa Clarita,CA,"Pizza,Restaurant,Pizza Place"
AVwc4RpekufWRAb5z_Gj,2702 E Cesar Chavez St,78702,30.253574,-97.713899,Austin,TX,"Restaurant,Pizza Place"
AVwdi0qdIN2L1WUfw24j,15745 N Hayden Rd,85260,33.628825,-111.89384799999999,Scottsdale,AZ,"Restaurant,Pizza Place"
AVwd1DkkByjofQCxs3tZ,92 W Market St,14830,42.143876,-77.058249,Corning,NY,"Restaurant,Pizza Place"
AV0Y4BC53D1zeR_xD0SU,8470 Us Highway 42,41042,38.977810999999996,-84.65763100000001,Florence,KY,"Restaurant,Pizza Place"
AV0Y4ASmFcQ3k02bEN55,6930 Madisonville Rd,45227,39.145886,-84.37496,Cincinnati,OH,"Restaurant,Pizza Place"
AVwdhNTjIN2L1WUfwnHj,4615 Park Blvd,92116,32.7613,-117.14616399999998,San Diego,CA,"Restaurant,Pizza Place"
AVwdgM5VkufWRAb56iPS,1862 Divisadero St,94115,37.787031,-122.439986,San Francisco,CA,"Pizza,Restaurant,Italian,Pizza Place"
AVwcyre-IN2L1WUfo72u,1099 Ole Berry Dr,24210,36.695997999999996,-82.008617,Abingdon,VA,"Restaurant,Art Gallery,Pizza Place,Pizza Place and Art Gallery"
AVzBHk8z-gnIPe8DSkDW,5996 Stetson Hills Blvd,80923,38.913371000000005,-104.716324,Colorado Springs,CO,"Restaurant,Pizza Place,Restaurants"
AVwdTdPG_7pvs4fz4d6k,1524 Church St,30030,33.791834,-84.285924,Decatur,GA,"Restaurant,Pizza Place"
AVwecratkufWRAb5DAo8,1301 E Robinson Ave,72764,36.167017,-94.122206,Springdale,AR,"Restaurant,Pizza Place"
AV1tgL36IxWefVJwg7eN,511 SE Washington Blvd,74006,36.749303999999995,-95.935558,Bartlesville,OK,"Restaurant,Pizza Place"
AVweJKw7IN2L1WUf2XME,40 E Main St,11787,40.855399,-73.19282,Smithtown,NY,"Restaurant,Pizza Place"
AVwcq-e1kufWRAb5xw-0,6000 Glades Rd,33431,26.368128999999996,-80.13471700000001,Boca Raton,FL,"Restaurant,American Restaurant,Pizza Place and American Restaurant,Pizza Place"
AVzA3vkKFcQ3k02bBYsQ,62 W 48th St,10036,40.758351,-73.980611,New York,NY,"Pizza,Restaurant,Breakfast & Brunch,Pizza Place"
AVwc869XByjofQCxj-Nz,6501 E Greenway Pkwy,85254,33.624157000000004,-111.942428,Scottsdale,AZ,"Pizza,Restaurant,Pizza Place"
AVwePjAFkufWRAb5BOxR,6611 Clayton Rd,63117,38.634426,-90.314864,Saint Louis,MO,"Restaurant,Pizza Place"
AVwciqVMByjofQCxfZZq,8949 Bay Pkwy,11214,40.595262,-74.00073499999999,Brooklyn,NY,"Restaurant,Pizza Place,Pizza Place Gravesend"
AVwcxkN8IN2L1WUfowcG,1116 Polk St,94109,37.787076,-122.419947,San Francisco,CA,"Restaurant,Pizza Place Lower Nob Hill,Pizza Place"
AVweK6FdByjofQCxv42T,19300 Rinaldi St,91327,34.273601,-118.55492199999999,Northridge,CA,"Restaurant,Pizza Place Porter Ranch,Counselor,Pizza Place,Healthcare Provider"
AVwdg6J7kufWRAb56o5Y,2395 York Rd,18929,40.25933,-75.08487,Jamison,PA,"Restaurant,Pizza Place"
AVwcuq6i_7pvs4fzyU5r,66 Main St,10707,40.950061,-73.82670999999999,Tuckahoe,NY,"Restaurant,Pizza Place"
AVwdN9xUIN2L1WUftdDt,1985 W Happy Valley Rd,85085,33.712927,-112.10665700000001,Phoenix,AZ,"Restaurant,Pizza Restaurants,Pizza Place,Italian Restaurants"
AVwdH1nYByjofQCxlupB,5618 Folsom Blvd,95819,38.558459,-121.43807199999999,Sacramento,CA,"Restaurant,Pizza Place"
AWEKVgBvRxPSIh2RrOqJ,6 Glenwood Ave,13421,43.078272999999996,-75.641838,Oneida,NY,"Restaurant,Pizza Place"
AWEKUydU3-Khe5l_edBW,5330 Salem Ave,45426,39.821965000000006,-84.28839,Dayton,OH,"Restaurant,Pizza Place"
AVweZevG_7pvs4fzCnpB,2250 Harding Hwy,45804,40.730765000000005,-84.064219,Lima,OH,"Restaurant,Pizza Place"
AWEKTwbZa4HuVbedMB00,708a N Riverside Dr,87532,35.997199,-106.06458799999999,Española,NM,"Restaurant,Pizza Place"
AVwd1MxmIN2L1WUfzmhz,2123 S Madison St,47302,40.176175,-85.38167800000001,Muncie,IN,"Restaurant,Pizza Place"
AVyispSKl8hL2jjQyP_c,1209 N Wells St,60610,41.904234,-87.63430699999999,Chicago,IL,"Restaurant,Pizza Place"
AVwcf90sIN2L1WUflncR,25101 N Lake Pleasant Pkwy,85383,33.711566999999995,-112.271371,Peoria,AZ,"Restaurant,Pizza Place"
AVwc-V-PByjofQCxkMSj,3306 Columbus St,43123,39.88297,-83.0909,Grove City,OH,"Pizza,Caterers,Pizza Place,Restaurants,Italian Restaurants"
AVwcrS0bIN2L1WUfnqNx,1132 W Taylor St,60607,41.869442,-87.65549,Chicago,IL,Pizza Place
AVweZoBR_7pvs4fzCo7H,1004 Willis Ave,11507,40.77068239,-73.64815673,Albertson,NY,Pizza Place
AVwcoUKEkufWRAb5xT7m,5201 University Way NE,98105,47.666709999999995,-122.3134,Seattle,WA,"Pizza,Pizza Place,Restaurants,Italian Restaurants"
AVwcfMKTByjofQCxex1J,515 S Oxford Valley Rd,19030,40.1696206,-74.84914538,Fairless Hills,PA,Pizza Place
AVwcrS4vIN2L1WUfnqOX,2530 W Market St,17404,39.94980118,-76.77790996,York,PA,"Italian Restaurant,Pizza Place,Italian Restaurant and Pizza Place"
AVzBBVnc3D1zeR_xBEnW,218 Market St,19106,39.949856,-75.14446600000001,Philadelphia,PA,"Pizza,Restaurant,Pizza Place,Restaurants"
AVwcuYDoByjofQCxhe88,3620 Route 378,18015,40.58204,-75.38794,Bethlehem,PA,Pizza Place
AVwcqb6OIN2L1WUfngXw,401 N Hickory Rd,46615,41.681090999999995,-86.19651400000001,South Bend,IN,"Restaurant,Pizza Place"
AVwc0unpByjofQCxil2A,6826 E Apple Ave,49442,43.23524318,-86.07675970000001,Muskegon,MI,Pizza Place
AVwd3qZ4IN2L1WUfz7gt,3131 Thatcher Ave,60171,41.936525,-87.83600600000001,River Grove,IL,"Restaurant,Pizza Place"
AVwdOESHIN2L1WUftePB,3457 Holdrege St,68503,40.82784079,-96.67026209,Lincoln,NE,Pizza Place
AVwczyAfIN2L1WUfpIEm,32 Main St,14075,42.71509795,-78.83096409,Hamburg,NY,Pizza Place
AVwdXZ8lByjofQCxoW02,6235 Goodrich Rd,14032,43.016838,-78.63711500000001,Clarence Center,NY,"Pizza,Pizza Place,Restaurants"
AVweAu0EByjofQCxufFr,999 W Montauk Hwy,11704,40.68544697,-73.35129982,West Babylon,NY,Pizza Place
AVwcevbVIN2L1WUflZuz,6044 FM 3009,78154,29.60487363,-98.27829212,Schertz,TX,Pizza Place
AVwdMpHtkufWRAb53VID,1455 State Road 436,32707,28.628151300000003,-81.31848335,Casselberry,FL,"Italian Restaurant,Pizza Place"
AVweHE_cIN2L1WUf2E1W,954 B St,94541,37.672714,-122.0834,Hayward,CA,"Pizza,Restaurant,Pizza Place,Restaurants"
AVwdAJhVkufWRAb51SN3,836 W Indiantown Rd,33458,26.93371897,-80.10878159,Jupiter,FL,"Italian Restaurant,Pizza Place"
AVwc6iss_7pvs4fz0Ua0,90 New York 109,11703,40.70488084,-73.34823711,North Babylon,NY,Pizza Place
AVwdK1cv_7pvs4fz2-Vq,64 Manetto Hill Mall,11803,40.78569826,-73.47424446,Plainview,NY,Pizza Place
AVwcwKzeByjofQCxhzHV,4131 FM 528,77546,29.52122846,-95.16136429999999,Friendswood,TX,Pizza Place
AVwdXdykIN2L1WUfvEYi,3489 Mission St,94110,37.7411235,-122.42252350000001,San Francisco,CA,"Pizza,Indian Restaurant,Restaurant,Pizza Place,Fusion"
AVwcgOGXIN2L1WUflpvj,2220 Wildcat Reserve,80129,39.53555771,-105.0149,Littleton,CO,Pizza Place
AVzA2ftKLD2H7whiWGHD,3525 W 3500 S,84119,40.695555999999996,-111.975229,West Valley City,UT,"Restaurant,Pizza Place"
AVwda8_IIN2L1WUfvpHg,104 N Elm St,27401,36.07275,-79.78997,Greensboro,NC,"Pizza,Delicatessens,American restaurants,Pizza Place,Restaurants"
AVwc2c9NByjofQCxi4L0,401 E Braddock Rd,22301,38.81344473,-77.05597696,Alexandria,VA,Pizza Place
AVwct5uE_7pvs4fzyNK7,10001 SW Nimbus Ave,97223,45.447275,-122.789648,Portland,OR,"Restaurant,Pizza Place"
AVzA2dZ--gnIPe8DSdcE,50 2nd Ave,10003,40.725307,-73.989947,New York,NY,"Restaurant,Pizza Place"
AVzBEQtQFcQ3k02bBdtj,329 Castle Shannon Blvd,15234,40.376106,-80.036625,Pittsburgh,PA,"Restaurant,Pizza Place"
AVwchhGsByjofQCxfLUK,350 E Bell Rd,85022,33.64175,-112.069405,Phoenix,AZ,"Pizza,Restaurant,Chain Restaurant,Pizza Place"
AVwclVcuIN2L1WUfmmaY,1919 W Montrose Ave,60613,41.96149721,-87.67677132,Chicago,IL,Pizza Place
AVwcmXye_7pvs4fzw5dS,2758 Alki Ave SW,98116,47.5786,-122.4115,Seattle,WA,"Pizza Place,Restaurants,Pizza Place Alki"
AVwdFtaQByjofQCxlYvA,1880 Mendocino Ave,95401,38.45832,-122.7168,Santa Rosa,CA,"Pizza,Food and Beverage,Pizza Place,Restaurants"
AVwdb-UN_7pvs4fz55QD,275 S Chickasaw Trl,32825,28.539877,-81.27588,Orlando,FL,"Pizza,Restaurant,Italian,Pizza Place"
AV0dSU4e3D1zeR_xEjr6,28630 Harper Ave,48081,42.504138,-82.89801999999999,Saint Clair Shores,MI,"Restaurant,Pizza Place"
AVwcqvpWIN2L1WUfnj0O,194 Main St,12561,41.74558177,-74.07830924,New Paltz,NY,Pizza Place
AVwdTYIXByjofQCxnr4Z,22 E Main St,11730,40.73105,-73.18988399999999,East Islip,NY,Pizza Place
AVwdYWky_7pvs4fz5R4g,2801 N Lincoln Ave,60657,41.932777,-87.65895,Chicago,IL,"Pizza,Restaurant,Italian,Chain Restaurant,Pizza Place Lakeview,Pizza Place"
AVwc4ykZIN2L1WUfp-Yt,3702 N Broadway St,60613,41.949273,-87.648615,Chicago,IL,"Italian Restaurant,Pizza Place and Italian Restaurant,Pizza Place,Restaurants"
AWEKUD2NRxPSIh2RrNAV,9432 S Power Rd,85236,33.363197,-111.68768200000001,Higley,AZ,"Restaurant,Pizza Place"
AVwdC-I7ByjofQCxk8Su,1201 W Grand Ave,60642,41.890859999999996,-87.65759,Chicago,IL,"Pizza,Restaurant,Pizza Place Fulton Market,Pizza Place"
AVwc0tKSByjofQCxiljZ,24270 Novi Rd,48375,42.46747588,-83.47447976,Novi,MI,Pizza Place
AVwdxT9GkufWRAb59GmW,257 Echo Ave,11789,40.95102792,-72.98250549,Sound Beach,NY,Pizza Place
AVwcsYx5kufWRAb5yAmM,2130 E Silver Springs Blvd,34470,29.186539,-82.10923000000001,Ocala,FL,"Restaurant,Pizza Place"
AVwdKV59_7pvs4fz25PC,2687 S Woodland Blvd,32720,28.98059308,-81.29700796,DeLand,FL,"Italian Restaurant,Pizza Place"
AVwcyNVUIN2L1WUfo2_v,40 E Louther St,17013,40.20265,-77.18766,Carlisle,PA,"Restaurant,Pizza Place"
AVwcu6KgByjofQCxhk9j,508 Larkfield Rd,11731,40.86336322,-73.32149595,East Northport,NY,"Italian Restaurant,Pizza Place"
AVwdLO-tByjofQCxmSXG,500 N Carpenter Rd,95351,37.643861,-121.029972,Modesto,CA,Pizza Place
AVwcqtqS_7pvs4fzxqDz,41070 California Oaks Rd,92562,33.56399219,-117.20374890000001,Murrieta,CA,Pizza Place
AVwc4C5mkufWRAb5z88Z,3823 Union Deposit Rd,17109,40.27948073,-76.82726344,Harrisburg,PA,Pizza Place
AVweX6kd_7pvs4fzCanL,2810 Business Center Dr,77584,29.556607,-95.39258415,Pearland,TX,"Italian Restaurant,Pizza Place"
AVwcw6hf_7pvs4fzytkj,702 Hanover Ave,18109,40.61521,-75.44467,Allentown,PA,"Restaurant,Pizza Place and Sports Bar,Pizza Place,Sports Bar,Pizza Place and Sports Bar Eastside"
AVwd2NzEIN2L1WUfzvZk,28 West St,10004,40.70575,-74.017,New York,NY,"Bar,Pizza Place"
AVwdnnL2kufWRAb57qpr,260 S 200 W,84101,40.763393,-111.89705,Salt Lake City,UT,"Restaurant,Pizza Place"
AVwc-7g5ByjofQCxkSOT,302 S 700 E,84102,40.762771,-111.871122,Salt Lake City,UT,"Restaurant,Pizza Place Central City,Pizza Place"
AVwdNPV3_7pvs4fz3ZtW,742 N State St,43082,40.1449395,-82.92282486,Westerville,OH,"Pizza Place,Sports Bar"
AVwcmYUN_7pvs4fzw5lC,6171 Mission Gorge Rd,92120,32.78716,-117.09773,San Diego,CA,"Pizza,Restaurant,Pizza Place"
AVwczqOMIN2L1WUfpGri,2110 Eagle Creek Ln,55129,44.91838038,-92.901958,Saint Paul,MN,Pizza Place
AVwcojio_7pvs4fzxSV6,7530 W Oakton St,60714,42.02602,-87.81557,Niles,IL,Pizza Place
AVwdDexa_7pvs4fz1x4Y,2709 McKinney Ave,75204,32.79818,-96.80163,Dallas,TX,"Pizza,Restaurant,Pizza Restaurants,Caterers,Pizza Place,Restaurants,Italian Restaurants"
AVwco2vGByjofQCxgiD0,380 N Park Rd,33021,26.013156,-80.1758321,Hollywood,FL,Pizza Place
AVwcjYweIN2L1WUfmPEl,5434 Peachtree Rd,30341,33.89318,-84.29999000000001,Atlanta,GA,"Pizza,Italian Restaurant,Restaurant,Pizza Place"
AVwcpBUu_7pvs4fzxXnh,2650 King Rd,75034,33.15326382,-96.85514215,Frisco,TX,Pizza Place
AVwcg51XByjofQCxfEKW,5701 Memphis Ave,44144,41.43994,-81.72634000000001,Cleveland,OH,"Bar,Pizza Place,Diner,Restaurant,Bar, Pizza Place, and Diner"
AVwcjeeQ_7pvs4fzwYrQ,118 Mamaroneck Ave,10601,41.02988222,-73.76554,White Plains,NY,Pizza Place
AVweF_KqByjofQCxvNfm,3385 S Durango Dr,89117,36.12819135,-115.279723,Las Vegas,NV,Pizza Place
AVwd89nP_7pvs4fz-txU,20420 Haggerty Rd,48167,42.43673068,-83.43467653,Northville,MI,"Pizza Place,Bar,Pizza Place and Bar"
AVwc7Gc8IN2L1WUfqYDV,1160 Grant St,48009,42.53845,-83.20988,Birmingham,MI,"Pizza Place,Restaurants"
AVwdR9uhByjofQCxnco5,2130 E 62nd St,46220,39.869098,-86.124765,Indianapolis,IN,"Restaurant,Pizza Place"
AVzA9F3BLD2H7whiWHRM,5945 Crawfordsville Rd,46224,39.797290999999994,-86.26379399999999,Indianapolis,IN,"Restaurant,Pizza Place"
AVwcf18RByjofQCxe5Fa,1950 E Greyhound Pass,46033,40.004602,-86.125084,Carmel,IN,"Restaurant,Pizza Place"
AVwdYQuWByjofQCxofis,3291 Truxel Rd,95833,38.627081,-121.498448,Sacramento,CA,"Restaurant,Pizza Place,Pizza Place South Natomas"
AVwc4YwBIN2L1WUfp58t,2800 W Big Beaver Rd,48084,42.561436,-83.183863,Troy,MI,"Restaurant,Pizza Place"
AV5ZUe6lRxPSIh2RjIBk,205 W Blackstock Rd,29301,34.939526,-81.9949,Spartanburg,SC,"Restaurant,Pizza Place"
AV0Y4BBqLD2H7whiY7Pe,7875 Montgomery Rd,45236,39.204368,-84.377994,Cincinnati,OH,"Restaurant,Pizza Place"
AVzA1Tew-gnIPe8DScgl,55 Covert Ave,11001,40.721558,-73.68864,Floral Park,NY,"Pizza Place,Restaurant"
AVwcg93qIN2L1WUflyBi,6281 Western Ave,49636,44.89760147,-85.98467231,Glen Arbor,MI,"Pizza Place,Deli / Bodega,Pizza Place and Deli / Bodega"
AVwcyDHDIN2L1WUfo1rX,318 Flatbush Ave,11238,40.67703,-73.97234,Brooklyn,NY,"Pizza Place,Italian Restaurant,Restaurant,Pizza"
AVwd6qUk_7pvs4fz-Zzy,1050 Elden St,20170,38.96776208,-77.397102,Herndon,VA,"Italian Restaurant,Pizza Place"
AVweFAhOByjofQCxvE3v,468 Nutt Rd,19460,40.12818,-75.52490999999999,Phoenixville,PA,"Pizza Place,Restaurant"
AVwctJgOIN2L1WUfn-uA,14550 Pipeline Ave,91710,33.988521999999996,-117.716086,Chino,CA,Pizza Place
AV2IPYJdIxWefVJwiiWo,844 Scarsdale Ave,10583,40.985848,-73.809012,Scarsdale,NY,"Pizza Place,Restaurant"
AVwdvCf9kufWRAb58xIa,3221 Adventureland Dr,50009,41.65891,-93.49731,Altoona,IA,"Restaurants,Italian Restaurant,Pizza Place,Italian Restaurant and Pizza Place"
AVwdlTESByjofQCxqiTw,27093 Bagley Rd,44138,41.371990000000004,-81.942665,Olmsted Falls,OH,"Pizza Place,Restaurant,Pizza,Restaurants"
AVwcqEtfkufWRAb5xmR2,86 S Main St,18938,40.361576,-74.950386,New Hope,PA,Pizza Place
AVwd9SERByjofQCxuAcb,1408 W 49th St,33012,25.86636778,-80.31123207,Hialeah,FL,"Italian Restaurant,Pizza Place"
AVwduNSXByjofQCxr5Af,4226 Calumet Ave,46320,41.6364965,-87.5091621,Hammond,IN,"Pizza Place,Italian Restaurant"
AVwcqfZ6ByjofQCxgz8f,876 Connetquot Ave,11752,40.76633264,-73.17540127,Islip Terrace,NY,Pizza Place
AVwcqBxJByjofQCxguxE,3668 Lake Tahoe Blvd,96150,38.94855,-119.9565,South Lake Tahoe,CA,"Pizza Place,Restaurant,Pizza,Breakfast & Brunch"
AVwckr-uByjofQCxfxsw,2090 Baker Rd NW,30144,34.0492815,-84.61146355,Kennesaw,GA,"Pizza Place,Italian Restaurant,Pizza Place and Italian Restaurant,Restaurants"
AVwc0pu5IN2L1WUfpSEp,2955 Cochran St,93065,34.281553,-118.73930790000001,Simi Valley,CA,Pizza Place
AVwcm6grkufWRAb5xEZY,4100 Carmel Rd,28226,35.11671417,-80.82542896,Charlotte,NC,Pizza Place
AVwdecRjkufWRAb56Rz8,6689 Maddox Blvd,23336,37.927836,-75.35564000000001,Chincoteague Island,VA,Pizza Place
AVwdSgAVByjofQCxniOU,3026 W Montrose Ave,60618,41.96125248,-87.70437452,Chicago,IL,"Pizza Place,Italian Restaurant"
AVwdBH8i_7pvs4fz1Y-t,2104 N Western Ave,60647,41.92064,-87.68759,Chicago,IL,"Pizza Place,Restaurant,Pizza"
AVwdDCAGIN2L1WUfrqQJ,13900 County Road 455,34711,28.54811878,-81.68140047,Clermont,FL,"Italian Restaurant,Pizza Place"
AVwdHQttByjofQCxloxi,1200 Welsh Rd,19454,40.227090000000004,-75.25945,North Wales,PA,"Pizza Place,Restaurant"
AVwdOT6gByjofQCxm0He,103 Signal Mountain Rd,37405,35.08433321,-85.3183446,Chattanooga,TN,Pizza Place
AVwc8SIbkufWRAb50p_2,3035 NE Kane Dr,97030,45.51822925,-122.3988054,Gresham,OR,"Pizza Place,Bar"
AVwcrRrA_7pvs4fzxwXM,9203C Louetta,77379,30.00673944,-95.54891854,Spring,TX,Pizza Place
AVwdyJmBkufWRAb59OBX,105 S York St,60126,41.898709999999994,-87.93934,Elmhurst,IL,"Pizza Place,Restaurant"
AVwd_t3mIN2L1WUf1Dgp,460 N Sepulveda Blvd,90245,33.92191,-118.39615400000001,El Segundo,CA,"Pizza Place,Restaurant"
AVwdHYbx_7pvs4fz2al7,3231 Powelton Ave,19104,39.960409999999996,-75.18906,Philadelphia,PA,"Pizza Place,Restaurant,Pizza,Pizza Place Powelton Village"
AVwd0zin_7pvs4fz9mgc,1130 Valley Forge Rd,19460,40.1188802,-75.4905592,Phoenixville,PA,"Italian Restaurant,Pizza Place,Italian Restaurant and Pizza Place"
AVwdcH99IN2L1WUfv1xq,3518 6th Ave,98406,47.25517556,-122.48337450000001,Tacoma,WA,Pizza Place
AVwdeFzZ_7pvs4fz6N78,1701 E 7th St,28204,35.21591371,-80.82177247,Charlotte,NC,"Pizza Place,Wings Joint,Pizza Place and Wings Joint Elizabeth,Pizza Place and Wings Joint"
AVwdLozi_7pvs4fz3Hfn,6372 W Sunset Blvd,90028,34.09771729999999,-118.3286819,Los Angeles,CA,"Pizza Place,restaurant"
AVwcnaeKByjofQCxgRT4,5513 Airport Way S,98108,47.553103,-122.3209137,Seattle,WA,"Pizza Place,Pizza Place Georgetown"
AVwdFUX7ByjofQCxlU7O,1534 California St,94109,37.79076,-122.419738,San Francisco,CA,"Pizza Place,Restaurant"
AVwdPrpY_7pvs4fz30Vj,6006 SW 18th St,33433,26.33146074,-80.13732433,Boca Raton,FL,Pizza Place
AVweX5PuByjofQCxxod0,14 Elwood St,60423,41.49908154,-87.84995645,Frankfort,IL,"American Restaurant,Pizza Place,American Restaurant and Pizza Place"
AVwed6xAkufWRAb5DMLK,4930 Dublin Blvd,94568,37.703783,-121.884947,Dublin,CA,Pizza Place
AVweHqpukufWRAb5AK9F,11608 Conant St,48212,42.40496287,-83.05426419,Hamtramck,MI,Pizza Place
AVwc4D2LIN2L1WUfp2rp,5315 Greenville Ave,75206,32.85168157,-96.77007914,Dallas,TX,Pizza Place
AVwdEDWY_7pvs4fz14Ng,105 N Fort Harrison Ave,33755,27.967240000000004,-82.79973000000001,Clearwater,FL,"Pizza Place,Italian Restaurant,Restaurant,Pizza Place and Italian Restaurant"
AVwc2hut_7pvs4fzzo1I,1014 N Ocean Dr,33019,26.01804689,-80.11738726,Hollywood,FL,"Pizza Place,American Restaurant,Pizza Place and American Restaurant"
AVwdMn4HIN2L1WUftPFC,166 W Maple Rd,48084,42.54842,-83.14925,Troy,MI,"Pizza Place,Restaurant"
AVwcrFmxIN2L1WUfnnz4,6051 SW Loop 820,76132,32.68152044,-97.41557985,Fort Worth,TX,"Sports Bar,Pizza Place,Sports Bar and Pizza Place City View,Sports Bar and Pizza Place"
AVwd80_AkufWRAb5-q3i,9719 Mills Rd,77070,29.9588,-95.5647,Houston,TX,"Pizza Place,Restaurants"
AVwc8P3z_7pvs4fz0mNK,250 S State Road 135,46142,39.61250937,-86.15865039,Greenwood,IN,"Pizza Place,Pizza,Restaurants,Italian Restaurants"
AVwcyn3gByjofQCxiOGT,13317 NE 175th St,98072,47.75379,-122.16068999999999,Woodinville,WA,"Pizza Place,Restaurant"
AVwdvXrsByjofQCxsDgu,615 E Grand River Ave,48823,42.73323545,-84.47601542,East Lansing,MI,Pizza Place
AVwd1_w1kufWRAb59vZJ,3690 Lincoln Way W,46628,41.693293,-86.300641,South Bend,IN,"Italian Restaurant,Pizza Place,Restaurant,Italian Restaurant and Pizza Place"
AVwejIr7_7pvs4fzEC9u,512 N Washingon St,58203,47.924609999999994,-97.044785,Grand Forks,ND,"Restaurant,Pizza Place"
AVwctPNmkufWRAb5yJ5Z,2300 Liam Ave,30019,34.004447,-83.914164,Dacula,GA,"Restaurant,Pizza Place"
AVwduJt5kufWRAb58pFL,5624 N Broadway St,60660,41.984474,-87.660095,Chicago,IL,"Pizza Place,Pizza Place Edgewater,Caterers,Restaurants,Italian Restaurants,Pizza"
AVwchEpnkufWRAb5wA7Z,8358 Point Meadows Dr,32256,30.2175,-81.52053000000001,Jacksonville,FL,"Pizza,Restaurants,Pizza Place"
AVwc6h07ByjofQCxjkmq,920 N High St,43201,39.981262,-83.00408,Columbus,OH,"Restaurant,Pizza Place,Pizza,Food Delivery,Restaurants,Sandwich Place"
AVwdldHTByjofQCxqj3t,640 Colvin Ave,14216,42.95816839,-78.859217,Buffalo,NY,Pizza Place
AVwdGPrykufWRAb52RhA,3233 Powelton Ave,19104,39.960509,-75.18915,Philadelphia,PA,"Pizza Place,Restaurant,American,Pizza"
AVwdFCbJ_7pvs4fz2Co1,522 E Atlantic Ave,33483,26.4614,-80.06729,Delray Beach,FL,"Italian Restaurant,Pizza Place,Pizza,Restaurants"
AVwc36_LByjofQCxjIHs,6415 Burden Blvd,99301,46.27084465,-119.17453770000002,Pasco,WA,Pizza Place
AVwco2W0IN2L1WUfnO5p,1022 College Ave,60187,41.86899252,-88.09073687,Wheaton,IL,Pizza Place
AVwckfwm_7pvs4fzwkS_,4804 Tieton Dr,98908,46.59229185,-120.5734884,Yakima,WA,"Pizza Place,American"
AVwcqIsE_7pvs4fzxjIo,1604 W Grandview Blvd,16509,42.08356203,-80.09611149,Erie,PA,"Italian Restaurant,Pizza Place,Italian Restaurant and Pizza Place"
AVwcsAj3kufWRAb5x8pf,544 E Broadway Blvd,37760,36.12602386,-83.47029153,Jefferson City,TN,"Italian Restaurant,Pizza Place,Italian Restaurant and Pizza Place"
AVwciS8JByjofQCxfU7M,2000 Mirror Lake Blvd,30180,33.733805,-84.900134,Villa Rica,GA,Pizza Place
AVwdDuDUkufWRAb513nA,4880 Lower Roswell Rd,30068,33.965959999999995,-84.40928000000001,Marietta,GA,"Pizza Place,Restaurant"
AVwd9VIWByjofQCxuA40,2307 S Dale Mabry Hwy,33629,27.92461767,-82.50625544,Tampa,FL,Pizza Place
AVwdE3kPIN2L1WUfr-IQ,4500 Hampton Ave,63109,38.589671100000004,-90.29440023,Saint Louis,MO,Pizza Place
AVwcprtHByjofQCxgrUt,44 Centennial Blvd,80129,39.56196,-104.98794,Littleton,CO,"Pizza Place,Zoo,Bar"
AVwd7dilIN2L1WUf0di5,2128 Murray Ave,15217,40.4328891,-79.9231777,Pittsburgh,PA,Pizza Place
AVwdY6YU_7pvs4fz5YC6,2553 S Colorado Blvd,80222,39.670606,-104.941363,Denver,CO,Pizza Place
AVwcj8-KkufWRAb5wimS,4900 Dodge St,68132,41.2597,-95.98789000000001,Omaha,NE,"Pizza Place,Bar,Sports Bar,Restaurants,Pizza,Ne\\pizza Place"
AVweCRYBkufWRAb5_bjs,1483 Madison St,37040,36.52092632,-87.33135603,Clarksville,TN,Pizza Place
AVwcnAqpByjofQCxgM3n,1633C Taylor Rd,32128,29.14240536,-81.03634925,Port Orange,FL,"Pizza Place,Restaurant"
AVwduLuSkufWRAb58pYM,2844 Verot School Rd,70508,30.14156,-92.03255,Lafayette,LA,"Pizza Place,Take Out Restaurants,Restaurants,Pizza"
AVwcv-bykufWRAb5ynLL,3601 Edison Rd,46615,41.695240000000005,-86.19735,South Bend,IN,"Pizza Place,Pizza,Take Out Restaurants,Restaurants"
AVwdLscCByjofQCxmXuJ,105 E Main St,33830,27.89632517,-81.84310734,Bartow,FL,"Pizza Place,Italian Restaurant,Pizza Place and Italian Restaurant Downtown Bartow,Pizza Place and Italian Restaurant"
AVwchlvXIN2L1WUfl5J3,4120 Woodward Ave,48201,42.35114625,-83.06025004,Detroit,MI,Pizza Place
AVwdOqzJIN2L1WUftlO4,301 Main St,92648,33.659634000000004,-117.999886,Huntington Beach,CA,"Pizza Place,Restaurant,Italian,Pizza"
AVwdNGjukufWRAb53aOH,1700 W 11th Ave,97402,44.0474,-123.11849,Eugene,OR,"Restaurant,Pizza Place,Pizza"
AVwclY8YIN2L1WUfmnC-,430 Long Hollow Pike,37072,36.330383000000005,-86.698296,Goodlettsville,TN,"Pizza Place,Restaurants,Restaurant"
AVwdEMDvByjofQCxlJol,111 S Broadway,55904,44.02239,-92.46348,Rochester,MN,"Pizza Place,Restaurant"
AVwcoLBoByjofQCxgZ7Y,1230 Sunset Blvd,95765,38.810996,-121.28473500000001,Rocklin,CA,"Italian Restaurant,Pizza Place"
AVwdcalWkufWRAb55-b_,2580 W Chandler Blvd,85224,33.30693154,-111.8855488,Chandler,AZ,Pizza Place
AVwchuM9kufWRAb5wI4n,2615 13th St,34769,28.24571781,-81.29899995,Saint Cloud,FL,Pizza Place
AVweiY0IkufWRAb5D3cl,122 W 8th St,65401,37.949963000000004,-91.7711,Rolla,MO,"Pizza Place,Restaurant"
AVwci_unIN2L1WUfmKON,1925 Madison Square Blvd,37086,36.020683,-86.57829,La Vergne,TN,"Pizza Place,Pizza,Italian Restaurants,Restaurants"
AVwdQL7NIN2L1WUft2h4,117 S Main St,48307,42.67741868,-83.13394551,Rochester,MI,"Pizza Place,Pizza Place Downtown Rochester"
AVwdpKIfIN2L1WUfx2FG,1552 FM 685,78660,30.45298831,-97.60445416,Pflugerville,TX,Pizza Place
AVwd-Ovt_7pvs4fz-5eE,15603 N 59th Ave,85306,33.6265,-112.18496999999999,Glendale,AZ,"Pizza Place,Restaurant,Pizza,Chain Restaurant"
AVweHdjTIN2L1WUf2IDS,3122 N Campbell Ave,85719,32.26363,-110.94318999999999,Tucson,AZ,"Pizza,Restaurants,Pizza Place"
AVwdP-jDByjofQCxnHE6,905 Church St,37203,36.160959999999996,-86.78461999999999,Nashville,TN,"Pizza Place,Restaurants,Italian Restaurants,Pizza,Restaurant"
AVwc3EXokufWRAb5zyFG,11534 Clifton Blvd,44102,41.48745138,-81.76733208,Cleveland,OH,Pizza Place
AVwce9huByjofQCxevK1,1187 Coast Village Rd,93108-2737,34.42067,-119.64497,Santa Barbara,CA,"Restaurant,Pizza Place,Italian Restaurant,Pizza Place and Italian Restaurant"
AVwcznSFByjofQCxiY-b,17020 Condit Rd,95037,37.13361,-121.63038999999999,Morgan Hill,CA,"Pizza Place,Restaurant"
AVwdgOBsByjofQCxpwnh,738 SW Gage Blvd,66606,39.05598,-95.72465,Topeka,KS,"Pizza Place,Restaurant"
AVweTeaj_7pvs4fzB0by,206 E End Blvd S,75670,32.54415,-94.34997,Marshall,TX,"Pizza Place,Pizza,Italian Restaurants,Restaurants,Restaurant"
AVwctBa1ByjofQCxhQHe,395 Shanley St,14206,42.882531,-78.798653,Buffalo,NY,"Pizza Place,bars & clubs"
AVwcm2WmkufWRAb5xDuB,1250 El Camino Real,94002,37.51868606,-122.27429690000001,Belmont,CA,Pizza Place
AVwcezFAkufWRAb5vmNn,1141 Steamboat Pkwy,89521,39.423759999999994,-119.7385,Reno,NV,"Pizza Place,Pizza,Restaurants"
AVwdPK3bkufWRAb53wLj,4312 Ridge Rd,44144,41.43924378,-81.73568205,Cleveland,OH,Pizza Place
AVwdN39oByjofQCxmu9Y,717 Sterlington Hwy,71241,32.77083563,-92.39532123,Farmerville,LA,Pizza Place
AVweMcWG_7pvs4fzA3hU,1577 Coburg Rd,97401,44.07913278,-123.06778059999999,Eugene,OR,Pizza Place
AVweCz7JkufWRAb5_gtb,179 SW 250th St,32669,29.64498172,-82.60638218,Newberry,FL,"Pizza Place,Restaurant"
AVwd-gAs_7pvs4fz-8Gz,203 N Main St,43402,41.37624548,-83.65051423,Bowling Green,OH,Pizza Place
AVwdCcB_IN2L1WUfrjvU,117 S Main St,62236,38.44239653,-90.19928813,Columbia,IL,"Italian Restaurant,Pizza Place,Italian Restaurant and Pizza Place"
AVwcnpjZIN2L1WUfnBCy,1050 E Ray Rd,85225,33.32082,-111.82303999999999,Chandler,AZ,"Pizza Place,Caterers,Restaurants,Pizza"
AVwclwe9kufWRAb5w3Bj,928 S Mayflower Rd,46619,41.66372,-86.32198000000001,South Bend,IN,"Pizza Place,Pizza,Restaurants,Take Out Restaurants"
AVwdNbmS_7pvs4fz3bpT,3571 Brookwall Dr,44333,41.13375116,-81.63874914,Akron,OH,Pizza Place
AVwdlvhNByjofQCxqm3l,1905 50th St,79412,33.548657,-101.85951700000001,Lubbock,TX,Pizza Place
AVwdUUle_7pvs4fz4m0P,2473 S Braeswood Blvd,77030,29.697129999999998,-95.41745999999999,Houston,TX,"Pizza Place,Restaurant,Pizza,Restaurants,Pizza Restaurants"
AVwdKcovkufWRAb528j9,705 E 21st St,88101,34.41913529,-103.19758,Clovis,NM,Pizza Place
AVwd5MQgIN2L1WUf0JFo,615 Erie Blvd W,13440,43.21503702,-75.47144514,Rome,NY,Pizza Place
AVwdaw8_IN2L1WUfvm3H,662 Peeksville Rd,30248,33.35046888,-84.09163489,Locust Grove,GA,Pizza Place
AVwcxKYTIN2L1WUforqV,300 W 29th St,21211,39.32223,-76.62254,Baltimore,MD,"Pizza Place,Catering,Restaurants,Sandwich Shops,Pizza"
AVwcqsnGIN2L1WUfnjV5,720 Logan Valley Mall,16602,40.46919938,-78.41174729,Altoona,PA,"Pizza Place,Italian Restaurant,Pizza Place and Italian Restaurant"
AVwcuJfJByjofQCxhciN,15720 Main St NE,98019,47.741921000000005,-121.985853,Duvall,WA,Pizza Place
AVwcnbALByjofQCxgRak,1922 West Park,28659,36.155712799999996,-81.16268548,North Wilkesboro,NC,Pizza Place
AVwc94jTIN2L1WUfq1AY,214 N Lombardy St,23220,37.550470000000004,-77.45936,Richmond,VA,"Restaurants,Pizza Place The Fan,Pizza Place"
AVwcvZzbIN2L1WUfoXV3,1976 Echo Hollow Rd,97402,44.0839722,-123.1683382,Eugene,OR,Pizza Place
AVwdFKiqByjofQCxlTib,3337 Fulton St,11208,40.68367,-73.87260699999999,Brooklyn,NY,Pizza Place
AVwcr4heByjofQCxhD2B,2310 Virginia Pkwy,75071,33.198826000000004,-96.642706,McKinney,TX,"Pizza Place,Restaurants,Pizza,Take Out Restaurants"
AVwczbTcIN2L1WUfpEFM,8706 W Golf Rd,60714,42.05480777,-87.84323635,Niles,IL,Pizza Place
AVwdURG9ByjofQCxn0zY,5821 E Charleston Blvd,89142,36.15815,-115.0470513,Las Vegas,NV,Pizza Place
AVwczFSkIN2L1WUfpAaH,1001A E 162nd St,60473,41.6005876,-87.59280308,South Holland,IL,Pizza Place
AVwdhHzjkufWRAb56rCx,301 S Blakely St,18512,41.4193,-75.6326,Scranton,PA,"Pizza Place,Restaurants"
AVwcsKIzkufWRAb5x-L4,109-5 Capcom Ave,27587,35.95055183,-78.52860759999999,Wake Forest,NC,"Italian Restaurant,Pizza Place,Italian Restaurant and Pizza Place"
AVwdqxZ4IN2L1WUfyGGx,59 Marble Ave,10570,41.131494,-73.790872,Pleasantville,NY,"Pizza Place,Restaurant"
AVwdKXFYByjofQCxmIyZ,1126 E Lovejoy St,14206,42.88975893,-78.80674718,Buffalo,NY,Pizza Place
